"STATION","DATE","REPORT_TYPE","SOURCE","AWND","BackupDirection","BackupDistance","BackupDistanceUnit","BackupElements","BackupElevation","BackupElevationUnit","BackupEquipment","BackupLatitude","BackupLongitude","BackupName","CDSD","CLDD","DSNW","DailyAverageDewPointTemperature","DailyAverageDryBulbTemperature","DailyAverageRelativeHumidity","DailyAverageSeaLevelPressure","DailyAverageStationPressure","DailyAverageWetBulbTemperature","DailyAverageWindSpeed","DailyCoolingDegreeDays","DailyDepartureFromNormalAverageTemperature","DailyHeatingDegreeDays","DailyMaximumDryBulbTemperature","DailyMinimumDryBulbTemperature","DailyPeakWindDirection","DailyPeakWindSpeed","DailyPrecipitation","DailySnowDepth","DailySnowfall","DailySustainedWindDirection","DailySustainedWindSpeed","DailyWeather","HDSD","HTDD","HeavyFog","HourlyAltimeterSetting","HourlyDewPointTemperature","HourlyDryBulbTemperature","HourlyPrecipitation","HourlyPresentWeatherType","HourlyPressureChange","HourlyPressureTendency","HourlyRelativeHumidity","HourlySeaLevelPressure","HourlySkyConditions","HourlyStationPressure","HourlyVisibility","HourlyWetBulbTemperature","HourlyWindDirection","HourlyWindGustSpeed","HourlyWindSpeed","MonthlyAverageRH","MonthlyDaysWithGT001Precip","MonthlyDaysWithGT010Precip","MonthlyDaysWithGT32Temp","MonthlyDaysWithGT90Temp","MonthlyDaysWithLT0Temp","MonthlyDaysWithLT32Temp","MonthlyDepartureFromNormalAverageTemperature","MonthlyDepartureFromNormalCoolingDegreeDays","MonthlyDepartureFromNormalHeatingDegreeDays","MonthlyDepartureFromNormalMaximumTemperature","MonthlyDepartureFromNormalMinimumTemperature","MonthlyDepartureFromNormalPrecipitation","MonthlyDewpointTemperature","MonthlyGreatestPrecip","MonthlyGreatestPrecipDate","MonthlyGreatestSnowDepth","MonthlyGreatestSnowDepthDate","MonthlyGreatestSnowfall","MonthlyGreatestSnowfallDate","MonthlyMaxSeaLevelPressureValue","MonthlyMaxSeaLevelPressureValueDate","MonthlyMaxSeaLevelPressureValueTime","MonthlyMaximumTemperature","MonthlyMeanTemperature","MonthlyMinSeaLevelPressureValue","MonthlyMinSeaLevelPressureValueDate","MonthlyMinSeaLevelPressureValueTime","MonthlyMinimumTemperature","MonthlySeaLevelPressure","MonthlyStationPressure","MonthlyTotalLiquidPrecipitation","MonthlyTotalSnowfall","MonthlyWetBulb","NormalsCoolingDegreeDay","NormalsHeatingDegreeDay","REM","REPORT_TYPE","SOURCE","ShortDurationEndDate005","ShortDurationEndDate010","ShortDurationEndDate015","ShortDurationEndDate020","ShortDurationEndDate030","ShortDurationEndDate045","ShortDurationEndDate060","ShortDurationEndDate080","ShortDurationEndDate100","ShortDurationEndDate120","ShortDurationEndDate150","ShortDurationEndDate180","ShortDurationPrecipitationValue005","ShortDurationPrecipitationValue010","ShortDurationPrecipitationValue015","ShortDurationPrecipitationValue020","ShortDurationPrecipitationValue030","ShortDurationPrecipitationValue045","ShortDurationPrecipitationValue060","ShortDurationPrecipitationValue080","ShortDurationPrecipitationValue100","ShortDurationPrecipitationValue120","ShortDurationPrecipitationValue150","ShortDurationPrecipitationValue180","Sunrise","Sunset","TStorms","WindEquipmentChangeDate"
"72306013722","2020-05-10T00:51:00","FM-15","7",,,,,,,,,,,,,,,,,,,,,,,,,,,,,,,,,,,,,,"30.25","34","39","0.00",,"-0.03","0","82","30.25","CLR:00","29.78","10.00","37","000",,"0",,,,,,,,,,,,,,,,,,,,,,,,,,,,,,,,,,,,,"MET11405/10/20 00:51:02 METAR KRDU 100551Z 00000KT 10SM CLR 04/01 A3025 RMK AO2 SLP245 T00390011 10144 20033 50009 (SMK)","FM-15","7",,,,,,,,,,,,,,,,,,,,,,,,,,,,"2009-07-08"
"72306013722","2020-05-10T01:00:00","FM-12","4",,,,,,,,,,,,,,,,,,,,,,,,,,,,,,,,,,,,,,,"34","39",,,"0.03","9","82","30.25",,"29.79","9.94","37","000",,"0",,,,,,,,,,,,,,,,,,,,,,,,,,,,,,,,,,,,,"SYN08072306 32966 00000 10039 20011 30087 40245 50009 90551 333 10144 20033 555 91006=","FM-12","4",,,,,,,,,,,,,,,,,,,,,,,,,,,,"2009-07-08"
"72306013722","2020-05-10T01:51:00","FM-15","7",,,,,,,,,,,,,,,,,,,,,,,,,,,,,,,,,,,,,,"30.25","34","38","0.00",,,,"86","30.25","CLR:00","29.78","10.00","36","050",,"5",,,,,,,,,,,,,,,,,,,,,,,,,,,,,,,,,,,,,"MET09605/10/20 01:51:02 METAR KRDU 100651Z 05004KT 10SM CLR 03/01 A3025 RMK AO2 SLP245 T00330011 (SMK)","FM-15","7",,,,,,,,,,,,,,,,,,,,,,,,,,,,"2009-07-08"
"72306013722","2020-05-10T02:51:00","FM-15","7",,,,,,,,,,,,,,,,,,,,,,,,,,,,,,,,,,,,,,"30.26","34","38","0.00",,,,"86","30.26","CLR:00","29.79","10.00","36","000",,"0",,,,,,,,,,,,,,,,,,,,,,,,,,,,,,,,,,,,,"MET09605/10/20 02:51:02 METAR KRDU 100751Z 00000KT 10SM CLR 03/01 A3026 RMK AO2 SLP246 T00330011 (SMK)","FM-15","7",,,,,,,,,,,,,,,,,,,,,,,,,,,,"2009-07-08"
"72306013722","2020-05-10T03:51:00","FM-15","7",,,,,,,,,,,,,,,,,,,,,,,,,,,,,,,,,,,,,,"30.28","29","40","0.00",,"-0.03","3","65","30.28","FEW:02 250","29.81","10.00","36","100",,"6",,,,,,,,,,,,,,,,,,,,,,,,,,,,,,,,,,,,,"MET10605/10/20 03:51:02 METAR KRDU 100851Z 10005KT 10SM FEW250 04/M02 A3028 RMK AO2 SLP254 T00441017 53010 (SMK)","FM-15","7",,,,,,,,,,,,,,,,,,,,,,,,,,,,"2009-07-08"
"72306013722","2020-05-10T04:51:00","FM-15","7",,,,,,,,,,,,,,,,,,,,,,,,,,,,,,,,,,,,,,"30.28","29","41","0.00",,,,"62","30.28","FEW:02 250","29.81","10.00","36","090",,"5",,,,,,,,,,,,,,,,,,,,,,,,,,,,,,,,,,,,,"MET10005/10/20 04:51:02 METAR KRDU 100951Z 09004KT 10SM FEW250 05/M02 A3028 RMK AO2 SLP254 T00501017 (SMK)","FM-15","7",,,,,,,,,,,,,,,,,,,,,,,,,,,,"2009-07-08"
"72306013722","2020-05-10T05:51:00","FM-15","7",,,,,,,,,,,,,,,,,,,,,,,,,,,,,,,,,,,,,,"30.30","29","40","0.00",,,,"65","30.30","FEW:02 250","29.83","10.00","36","100",,"5",,,,,,,,,,,,,,,,,,,,,,,,,,,,,,,,,,,,,"MET10005/10/20 05:51:02 METAR KRDU 101051Z 10004KT 10SM FEW250 04/M02 A3030 RMK AO2 SLP261 T00441017 (SMK)","FM-15","7",,,,,,,,,,,,,,,,,,,,,,,,,,,,"2009-07-08"
"72306013722","2020-05-10T06:51:00","FM-15","7",,,,,,,,,,,,,,,,,,,,,,,,,,,,,,,,,,,,,,"30.31","31","45","0.00",,"-0.03","3","58","30.31","FEW:02 250","29.84","10.00","39","120",,"9",,,,,,,,,,,,,,,,,,,,,,,,,,,,,,,,,,,,,"MET11705/10/20 06:51:02 METAR KRDU 101151Z 12008KT 10SM FEW250 07/M01 A3031 RMK AO2 SLP264 T00721006 10072 20022 53010 (RP)","FM-15","7",,,,,,,,,,,,,,,,,,,,,,,,,,,,"2009-07-08"
"72306013722","2020-05-10T07:00:00","FM-12","4",,,,,,,,,,,,,,,,,,,,,,,,,,,,,,,,,,,,,,,"31","45",,,"-0.03","3","58","30.31",,"29.85","9.94","39","120",,"9",,,,,,,,,,,,,,,,,,,,,,,,,,,,,,,,,,,,,"SYN08072306 32966 21208 10072 21006 30107 40264 53010 91151 333 10172 20022 555 91012=","FM-12","4",,,,,,,,,,,,,,,,,,,,,,,,,,,,"2009-07-08"
"72306013722","2020-05-10T07:51:00","FM-15","7",,,,,,,,,,,,,,,,,,,,,,,,,,,,,,,,,,,,,,"30.32","33","50","0.00",,,,"52","30.31","FEW:02 250","29.85","10.00","43","130",,"10",,,,,,,,,,,,,,,,,,,,,,,,,,,,,,,,,,,,,"MET09805/10/20 07:51:02 METAR KRDU 101251Z 13009KT 10SM FEW250 10/01 A3032 RMK AO2 SLP265 T01000006 (RP)","FM-15","7",,,,,,,,,,,,,,,,,,,,,,,,,,,,"2009-07-08"
"72306013722","2020-05-10T08:51:00","FM-15","7",,,,,,,,,,,,,,,,,,,,,,,,,,,,,,,,,,,,,,"30.31","34","55","0.00",,,,"45","30.30","FEW:02 250","29.84","10.00","45","150",,"8",,,,,,,,,,,,,,,,,,,,,,,,,,,,,,,,,,,,,"MET09805/10/20 08:51:02 METAR KRDU 101351Z 15007KT 10SM FEW250 13/01 A3031 RMK AO2 SLP262 T01280011 (RP)","FM-15","7",,,,,,,,,,,,,,,,,,,,,,,,,,,,"2009-07-08"
"72306013722","2020-05-10T09:51:00","FM-15","7",,,,,,,,,,,,,,,,,,,,,,,,,,,,,,,,,,,,,,"30.29","33","59","0.00",,"+0.02","8","38","30.29","SCT:04 250","29.82","10.00","47","120",,"6",,,,,,,,,,,,,,,,,,,,,,,,,,,,,,,,,,,,,"MET10405/10/20 09:51:02 METAR KRDU 101451Z 12005KT 10SM SCT250 15/01 A3029 RMK AO2 SLP257 T01500006 58007 (RP)","FM-15","7",,,,,,,,,,,,,,,,,,,,,,,,,,,,"2009-07-08"
"72306013722","2020-05-10T10:51:00","FM-15","7",,,,,,,,,,,,,,,,,,,,,,,,,,,,,,,,,,,,,,"30.28","34","62","0.00",,,,"35","30.28","SCT:04 250","29.81","10.00","49","VRB",,"5",,,,,,,,,,,,,,,,,,,,,,,,,,,,,,,,,,,,,"MET09805/10/20 10:51:02 METAR KRDU 101551Z VRB04KT 10SM SCT250 17/01 A3028 RMK AO2 SLP253 T01670011 (RP)","FM-15","7",,,,,,,,,,,,,,,,,,,,,,,,,,,,"2009-07-08"
"72306013722","2020-05-10T11:51:00","FM-15","7",,,,,,,,,,,,,,,,,,,,,,,,,,,,,,,,,,,,,,"30.24","38","65","0.00",,,,"37","30.24","SCT:04 250","29.77","10.00","52","210",,"9",,,,,,,,,,,,,,,,,,,,,,,,,,,,,,,,,,,,,"MET09805/10/20 11:51:02 METAR KRDU 101651Z 21008KT 10SM SCT250 18/03 A3024 RMK AO2 SLP241 T01830033 (RP)","FM-15","7",,,,,,,,,,,,,,,,,,,,,,,,,,,,"2009-07-08"
"72306013722","2020-05-10T12:51:00","FM-15","7",,,,,,,,,,,,,,,,,,,,,,,,,,,,,,,,,,,,,,"30.21","39","67","0.00",,"+0.08","8","36","30.21","FEW:02 65 FEW:02 250","29.74","10.00","53","240",,"9",,,,,,,,,,,,,,,,,,,,,,,,,,,,,,,,,,,,,"MET12305/10/20 12:51:02 METAR KRDU 101751Z 24008KT 10SM FEW065 FEW250 19/04 A3021 RMK AO2 SLP230 T01940039 10194 20078 58026 (RP)","FM-15","7",,,,,,,,,,,,,,,,,,,,,,,,,,,,"2009-07-08"
"72306013722","2020-05-10T13:00:00","FM-12","4",,,,,,,,,,,,,,,,,,,,,,,,,,,,,,,,,,,,,,,"39","67",,,"+0.08","8","36","30.21","57","29.75","9.94","53","240",,"9",,,,,,,,,,,,,,,,,,,,,,,,,,,,,,,,,,,,,"SYN08072306 32766 22408 10194 20039 30073 40230 58026 91751 333 10194 20078 555 91018=","FM-12","4",,,,,,,,,,,,,,,,,,,,,,,,,,,,"2009-07-08"
"72306013722","2020-05-10T13:51:00","FM-15","7",,,,,,,,,,,,,,,,,,,,,,,,,,,,,,,,,,,,,,"30.17","39","68","0.00",,,,"35","30.17","FEW:02 65 FEW:02 250","29.70","10.00","53","220","21","14",,,,,,,,,,,,,,,,,,,,,,,,,,,,,,,,,,,,,"MET10805/10/20 13:51:02 METAR KRDU 101851Z 22012G18KT 10SM FEW065 FEW250 20/04 A3017 RMK AO2 SLP217 T02000039 (RP)","FM-15","7",,,,,,,,,,,,,,,,,,,,,,,,,,,,"2009-07-08"
"72306013722","2020-05-10T14:51:00","FM-15","7",,,,,,,,,,,,,,,,,,,,,,,,,,,,,,,,,,,,,,"30.14","40","70","0.00",,,,"34","30.14","FEW:02 65 FEW:02 250","29.67","10.00","55","200","20","13",,,,,,,,,,,,,,,,,,,,,,,,,,,,,,,,,,,,,"MET10805/10/20 14:51:02 METAR KRDU 101951Z 20011G17KT 10SM FEW065 FEW250 21/04 A3014 RMK AO2 SLP206 T02110044 (HA)","FM-15","7",,,,,,,,,,,,,,,,,,,,,,,,,,,,"2009-07-08"
"72306013722","2020-05-10T15:51:00","FM-15","7",,,,,,,,,,,,,,,,,,,,,,,,,,,,,,,,,,,,,,"30.11","39","69","0.00",,"+0.10","6","33","30.11","FEW:02 65 FEW:02 250","29.64","10.00","54","210","23","18",,,,,,,,,,,,,,,,,,,,,,,,,,,,,,,,,,,,,"MET11405/10/20 15:51:02 METAR KRDU 102051Z 21016G20KT 10SM FEW065 FEW250 21/04 A3011 RMK AO2 SLP197 T02060039 56033 (HA)","FM-15","7",,,,,,,,,,,,,,,,,,,,,,,,,,,,"2009-07-08"
"72306013722","2020-05-10T16:51:00","FM-15","7",,,,,,,,,,,,,,,,,,,,,,,,,,,,,,,,,,,,,,"30.10","38","69","0.00",,,,"32","30.10","FEW:02 65","29.63","10.00","53","240",,"8",,,,,,,,,,,,,,,,,,,,,,,,,,,,,,,,,,,,,"MET09805/10/20 16:51:02 METAR KRDU 102151Z 24007KT 10SM FEW065 21/03 A3010 RMK AO2 SLP192 T02060033 (HA)","FM-15","7",,,,,,,,,,,,,,,,,,,,,,,,,,,,"2009-07-08"
"72306013722","2020-05-10T17:51:00","FM-15","7",,,,,,,,,,,,,,,,,,,,,,,,,,,,,,,,,,,,,,"30.08","38","68","0.00",,,,"33","30.08","SCT:04 65","29.61","10.00","53","220","23","14",,,,,,,,,,,,,,,,,,,,,,,,,,,,,,,,,,,,,"MET10105/10/20 17:51:02 METAR KRDU 102251Z 22012G20KT 10SM SCT065 20/03 A3008 RMK AO2 SLP185 T02000033 (HA)","FM-15","7",,,,,,,,,,,,,,,,,,,,,,,,,,,,"2009-07-08"
"72306013722","2020-05-10T18:51:00","FM-15","7",,,,,,,,,,,,,,,,,,,,,,,,,,,,,,,,,,,,,,"30.08","40","64","0.00",,"+0.04","6","41","30.07","FEW:02 65","29.61","10.00","52","210",,"10",,,,,,,,,,,,,,,,,,,,,,,,,,,,,,,,,,,,,"MET11605/10/20 18:51:02 METAR KRDU 102351Z 21009KT 10SM FEW065 18/04 A3008 RMK AO2 SLP184 T01780044 10211 20178 56013 (HA)","FM-15","7",,,,,,,,,,,,,,,,,,,,,,,,,,,,"2009-07-08"
"72306013722","2020-05-10T19:00:00","FM-12","4",,,,,,,,,,,,,,,,,,,,,,,,,,,,,,,,,,,,,,,"40","64",,,"+0.04","6","41","30.07","57","29.62","9.94","52","210",,"10",,,,,,,,,,,,,,,,,,,,,,,,,,,,,,,,,,,,,"SYN08072306 32766 22109 10178 20044 30030 40184 56013 92351 333 10211 20022 555 91100=","FM-12","4",,,,,,,,,,,,,,,,,,,,,,,,,,,,"2009-07-08"
"72306013722","2020-05-10T19:51:00","FM-15","7",,,,,,,,,,,,,,,,,,,,,,,,,,,,,,,,,,,,,,"30.07","41","61","0.00",,,,"48","30.07","FEW:02 65","29.60","10.00","51","180",,"7",,,,,,,,,,,,,,,,,,,,,,,,,,,,,,,,,,,,,"MET09305/10/20 19:51:01 METAR KRDU 110051Z 18006KT 10SM FEW065 16/05 A3007 RMK AO2 SLP182 T01610050","FM-15","7",,,,,,,,,,,,,,,,,,,,,,,,,,,,"2009-07-08"
"72306013722","2020-05-10T20:51:00","FM-15","7",,,,,,,,,,,,,,,,,,,,,,,,,,,,,,,,,,,,,,"30.07","41","60","0.00",,,,"50","30.06","CLR:00","29.60","10.00","51","190",,"8",,,,,,,,,,,,,,,,,,,,,,,,,,,,,,,,,,,,,"MET09005/10/20 20:51:01 METAR KRDU 110151Z 19007KT 10SM CLR 16/05 A3007 RMK AO2 SLP180 T01560050","FM-15","7",,,,,,,,,,,,,,,,,,,,,,,,,,,,"2009-07-08"
"72306013722","2020-05-10T21:51:00","FM-15","7",,,,,,,,,,,,,,,,,,,,,,,,,,,,,,,,,,,,,,"30.06","42","59","0.00",,"+0.01","8","54","30.06","CLR:00","29.59","10.00","50","180",,"7",,,,,,,,,,,,,,,,,,,,,,,,,,,,,,,,,,,,,"MET09605/10/20 21:51:01 METAR KRDU 110251Z 18006KT 10SM CLR 15/06 A3006 RMK AO2 SLP178 T01500056 58004","FM-15","7",,,,,,,,,,,,,,,,,,,,,,,,,,,,"2009-07-08"
"72306013722","2020-05-10T22:51:00","FM-15","7",,,,,,,,,,,,,,,,,,,,,,,,,,,,,,,,,,,,,,"30.05","45","59","0.00",,,,"60","30.05","CLR:00","29.58","10.00","52","190",,"13",,,,,,,,,,,,,,,,,,,,,,,,,,,,,,,,,,,,,"MET09005/10/20 22:51:02 METAR KRDU 110351Z 19011KT 10SM CLR 15/07 A3005 RMK AO2 SLP175 T01500072","FM-15","7",,,,,,,,,,,,,,,,,,,,,,,,,,,,"2009-07-08"
"72306013722","2020-05-10T23:51:00","FM-15","7",,,,,,,,,,,,,,,,,,,,,,,,,,,,,,,,,,,,,,"30.04","46","58","0.00",,,,"65","30.03","CLR:00","29.57","10.00","52","210",,"11",,,,,,,,,,,,,,,,,,,,,,,,,,,,,,,,,,,,,"MET10005/10/20 23:51:02 METAR KRDU 110451Z 21010KT 10SM CLR 14/08 A3004 RMK AO2 SLP170 T01440078 402110022","FM-15","7",,,,,,,,,,,,,,,,,,,,,,,,,,,,"2009-07-08"
"72306013722","2020-05-10T23:59:00","SOD  ","6",,,,,,,,,,,,,,,"37","53","50","30.19","29.73","47","8.3","0","-13.4","12","70","36","220","27","0.00","0","0.0","230","21",,,,,,,,,,,,,,,,,,,,,,,,,,,,,,,,,,,,,,,,,,,,,,,,,,,,,,,,,"SOD73924 HR PRECIPITATION (IN): 0.00 SNOW DEPTH (IN):0     24 HR SNOWFALL (IN):0.0  24 HR MAX TEMP (F): 7024 HR MIN TEMP (F): 36AVERAGE STATION PRESSURE:29.735 MINIMUM SEA LEVEL PRESSURE:30.03 TIME OF OCCURRENCE:2359 PEAK WIND SPEED (MPH): 27 PEAK WIND DIR (DEG):220 PEAK WIND TIME (LST):      FASTEST 2MIN SPEED (MPH): 21FASTEST 2MIN DIR (DEG):230 FASTEST 2MIN TIME (LST):     AVERAGE WIND SPEED (MPH): 8.3 24 HR AVG TEMP (F): 53DEPART FROM NORMAL:-13  HEATING DEGREE DAYS: 12 COOLING DEGREE DAYS:  0 LATEST DAY MAX TEMP (0700-1900 LST):70  LATEST NIGHT MIN TEMP(1900-0800 LST):36 HOURLY INCREMENTAL PRECIPITATION VALUES (IN):.00 0.00 0.00 0.00 0.00 0.00 0.00 0.00 0.00 0.00 0.00 0.00 0.00 0.00 0.00 0.00 0.00 0.00 0.00 0.00 0.00 0.00 0.00 0.00","SOD  ","6",,,,,,,,,,,,,,,,,,,,,,,,,"0513","1910",,"2009-07-08"
"72306013722","2020-05-11T00:51:00","FM-15","7",,,,,,,,,,,,,,,,,,,,,,,,,,,,,,,,,,,,,,"30.02","47","57","0.00",,"+0.04","8","69","30.01","CLR:00","29.55","10.00","52","210",,"11",,,,,,,,,,,,,,,,,,,,,,,,,,,,,,,,,,,,,"MET11405/11/20 00:51:02 METAR KRDU 110551Z 21010KT 10SM CLR 14/08 A3002 RMK AO2 SLP162 T01390083 10178 20139 58015 (SMK)","FM-15","7",,,,,,,,,,,,,,,,,,,,,,,,,,,,"2009-07-08"
"72306013722","2020-05-11T01:00:00","FM-12","4",,,,,,,,,,,,,,,,,,,,,,,,,,,,,,,,,,,,,,,"47","57",,,"+0.04","8","69","30.01",,"29.56","9.94","52","210",,"11",,,,,,,,,,,,,,,,,,,,,,,,,,,,,,,,,,,,,"SYN08072306 32966 02110 10139 20083 30010 40162 58015 90551 333 10178 20022 555 91106=","FM-12","4",,,,,,,,,,,,,,,,,,,,,,,,,,,,"2009-07-08"
"72306013722","2020-05-11T01:51:00","FM-15","7",,,,,,,,,,,,,,,,,,,,,,,,,,,,,,,,,,,,,,"29.99","48","57","0.00",,,,"72","29.98","CLR:00","29.52","10.00","52","220",,"9",,,,,,,,,,,,,,,,,,,,,,,,,,,,,,,,,,,,,"MET09605/11/20 01:51:02 METAR KRDU 110651Z 22008KT 10SM CLR 14/09 A2999 RMK AO2 SLP153 T01390089 (SMK)","FM-15","7",,,,,,,,,,,,,,,,,,,,,,,,,,,,"2009-07-08"
"72306013722","2020-05-11T02:51:00","FM-15","7",,,,,,,,,,,,,,,,,,,,,,,,,,,,,,,,,,,,,,"29.97","48","56","0.00",,,,"75","29.96","CLR:00","29.50","10.00","52","210",,"13",,,,,,,,,,,,,,,,,,,,,,,,,,,,,,,,,,,,,"MET09605/11/20 02:51:02 METAR KRDU 110751Z 21011KT 10SM CLR 13/09 A2997 RMK AO2 SLP147 T01330089 (SMK)","FM-15","7",,,,,,,,,,,,,,,,,,,,,,,,,,,,"2009-07-08"
"72306013722","2020-05-11T03:51:00","FM-15","7",,,,,,,,,,,,,,,,,,,,,,,,,,,,,,,,,,,,,,"29.98","49","54","0.00",,"+0.04","5","83","29.97","CLR:00","29.51","10.00","51","220",,"7",,,,,,,,,,,,,,,,,,,,,,,,,,,,,,,,,,,,,"MET10205/11/20 03:51:02 METAR KRDU 110851Z 22006KT 10SM CLR 12/09 A2998 RMK AO2 SLP149 T01220094 55014 (SMK)","FM-15","7",,,,,,,,,,,,,,,,,,,,,,,,,,,,"2009-07-08"
"72306013722","2020-05-11T04:51:00","FM-15","7",,,,,,,,,,,,,,,,,,,,,,,,,,,,,,,,,,,,,,"29.99","49","52","0.00",,,,"89","29.99","CLR:00","29.52","10.00","50","250",,"6",,,,,,,,,,,,,,,,,,,,,,,,,,,,,,,,,,,,,"MET09605/11/20 04:51:02 METAR KRDU 110951Z 25005KT 10SM CLR 11/09 A2999 RMK AO2 SLP155 T01110094 (SMK)","FM-15","7",,,,,,,,,,,,,,,,,,,,,,,,,,,,"2009-07-08"
"72306013722","2020-05-11T05:51:00","FM-15","7",,,,,,,,,,,,,,,,,,,,,,,,,,,,,,,,,,,,,,"30.01","49","51","0.00",,,,"92","30.00","FEW:02 120","29.54","10.00","50","250",,"3",,,,,,,,,,,,,,,,,,,,,,,,,,,,,,,,,,,,,"MET09905/11/20 05:51:02 METAR KRDU 111051Z 25003KT 10SM FEW120 11/09 A3001 RMK AO2 SLP160 T01060094 (SMK)","FM-15","7",,,,,,,,,,,,,,,,,,,,,,,,,,,,"2009-07-08"
"72306013722","2020-05-11T06:51:00","FM-15","7",,,,,,,,,,,,,,,,,,,,,,,,,,,,,,,,,,,,,,"30.02","49","55","0.00",,"-0.04","2","80","30.02","FEW:02 80 FEW:02 110","29.55","10.00","52","VRB",,"8",,,,,,,,,,,,,,,,,,,,,,,,,,,,,,,,,,,,,"MET12405/11/20 06:51:02 METAR KRDU 111151Z 27007KT 10SM FEW080 FEW110 13/09 A3002 RMK AO2 SLP165 T01280094 10139 20100 52015 (KAH)","FM-15","7",,,,,,,,,,,,,,,,,,,,,,,,,,,,"2009-07-08"
"72306013722","2020-05-11T07:00:00","FM-12","4",,,,,,,,,,,,,,,,,,,,,,,,,,,,,,,,,,,,,,,"49","55",,,"-0.04","2","80","30.02","74","29.56","9.94","52","270",,"8",,,,,,,,,,,,,,,,,,,,,,,,,,,,,,,,,,,,,"SYN08072306 32866 22707 10128 20094 30010 40165 52015 91151 333 10211 20100 555 91112=","FM-12","4",,,,,,,,,,,,,,,,,,,,,,,,,,,,"2009-07-08"
"72306013722","2020-05-11T07:51:00","FM-15","7",,,,,,,,,,,,,,,,,,,,,,,,,,,,,,,,,,,,,,"30.03","44","59","0.00",,,,"58","30.03","FEW:02 80 SCT:04 110","29.56","10.00","51","290","21","11",,,,,,,,,,,,,,,,,,,,,,,,,,,,,,,,,,,,,"MET10905/11/20 07:51:02 METAR KRDU 111251Z 29010G18KT 10SM FEW080 SCT110 15/07 A3003 RMK AO2 SLP168 T01500067 (KAH)","FM-15","7",,,,,,,,,,,,,,,,,,,,,,,,,,,,"2009-07-08"
"72306013722","2020-05-11T08:51:00","FM-15","7",,,,,,,,,,,,,,,,,,,,,,,,,,,,,,,,,,,,,,"30.04","35","60","0.00",,,,"39","30.04","FEW:02 55 FEW:02 80 FEW:02 110","29.57","10.00","48","310","25","8",,,,,,,,,,,,,,,,,,,,,,,,,,,,,,,,,,,,,"MET11605/11/20 08:51:02 METAR KRDU 111351Z 31007G22KT 10SM FEW055 FEW080 FEW110 16/02 A3004 RMK AO2 SLP172 T01560017 (KAH)","FM-15","7",,,,,,,,,,,,,,,,,,,,,,,,,,,,"2009-07-08"
"72306013722","2020-05-11T09:51:00","FM-15","7",,,,,,,,,,,,,,,,,,,,,,,,,,,,,,,,,,,,,,"30.05","32","62","0.00",,"-0.02","1","32","30.04","FEW:02 60 FEW:02 110","29.58","10.00","48","280","24","11",,,,,,,,,,,,,,,,,,,,,,,,,,,,,,,,,,,,,"MET11505/11/20 09:51:02 METAR KRDU 111451Z 28010G21KT 10SM FEW060 FEW110 17/00 A3005 RMK AO2 SLP172 T01670000 51007 (KAH)","FM-15","7",,,,,,,,,,,,,,,,,,,,,,,,,,,,"2009-07-08"
"72306013722","2020-05-11T10:51:00","FM-15","7",,,,,,,,,,,,,,,,,,,,,,,,,,,,,,,,,,,,,,"30.03","30","63","0.00",,,,"29","30.03","FEW:02 70","29.56","10.00","48","310","21","8",,,,,,,,,,,,,,,,,,,,,,,,,,,,,,,,,,,,,"MET10305/11/20 10:51:02 METAR KRDU 111551Z 31007G18KT 10SM FEW070 17/M01 A3003 RMK AO2 SLP168 T01721011 (KAH)","FM-15","7",,,,,,,,,,,,,,,,,,,,,,,,,,,,"2009-07-08"
"72306013722","2020-05-11T11:51:00","FM-15","7",,,,,,,,,,,,,,,,,,,,,,,,,,,,,,,,,,,,,,"30.03","30","63","0.00",,,,"29","30.02","FEW:02 75","29.56","10.00","48","290","26","13",,,,,,,,,,,,,,,,,,,,,,,,,,,,,,,,,,,,,"MET10305/11/20 11:51:02 METAR KRDU 111651Z 29011G23KT 10SM FEW075 17/M01 A3003 RMK AO2 SLP166 T01721011 (KAH)","FM-15","7",,,,,,,,,,,,,,,,,,,,,,,,,,,,"2009-07-08"
"72306013722","2020-05-11T12:51:00","FM-15","7",,,,,,,,,,,,,,,,,,,,,,,,,,,,,,,,,,,,,,"30.02","31","64","0.00",,"+0.02","6","29","30.01","FEW:02 75","29.55","10.00","49","290","31","15",,,,,,,,,,,,,,,,,,,,,,,,,,,,,,,,,,,,,"MET13905/11/20 12:51:02 METAR KRDU 111751Z 29013G27KT 10SM FEW075 18/M01 A3002 RMK AO2 PK WND 27027/1747 SLP164 T01781006 10183 20128 56008 (KAH)","FM-15","7",,,,,,,,,,,,,,,,,,,,,,,,,,,,"2009-07-08"
"72306013722","2020-05-11T13:00:00","FM-12","4",,,,,,,,,,,,,,,,,,,,,,,,,,,,,,,,,,,,,,,"31","64",,,"+0.02","6","29","30.01","74","29.56","9.94","49","290",,"15",,,,,,,,,,,,,,,,,,,,,,,,,,,,,,,,,,,,,"SYN08672306 32866 22913 10178 21006 30010 40164 56008 91751 333 10183 20128 91027 555 91118=","FM-12","4",,,,,,,,,,,,,,,,,,,,,,,,,,,,"2009-07-08"
"72306013722","2020-05-11T13:51:00","FM-15","7",,,,,,,,,,,,,,,,,,,,,,,,,,,,,,,,,,,,,,"30.00","35","66","0.00",,,,"32","29.99","FEW:02 70","29.53","10.00","51","VRB","18","8",,,,,,,,,,,,,,,,,,,,,,,,,,,,,,,,,,,,,"MET10205/11/20 13:51:02 METAR KRDU 111851Z 32007G16KT 10SM FEW070 19/02 A3000 RMK AO2 SLP157 T01890017 (KAH)","FM-15","7",,,,,,,,,,,,,,,,,,,,,,,,,,,,"2009-07-08"
"72306013722","2020-05-11T14:51:00","FM-15","7",,,,,,,,,,,,,,,,,,,,,,,,,,,,,,,,,,,,,,"30.00","33","65","0.00",,,,"31","29.99","FEW:02 70","29.53","10.00","50","270","25","9",,,,,,,,,,,,,,,,,,,,,,,,,,,,,,,,,,,,,"MET10205/11/20 14:51:02 METAR KRDU 111951Z 27008G22KT 10SM FEW070 18/01 A3000 RMK AO2 SLP156 T01830006 (JBA)","FM-15","7",,,,,,,,,,,,,,,,,,,,,,,,,,,,"2009-07-08"
"72306013722","2020-05-11T15:51:00","FM-15","7",,,,,,,,,,,,,,,,,,,,,,,,,,,,,,,,,,,,,,"30.01","32","65","0.00",,"+0.01","5","29","30.00","SCT:04 70","29.54","10.00","49","290","21","11",,,,,,,,,,,,,,,,,,,,,,,,,,,,,,,,,,,,,"MET12605/11/20 15:51:02 METAR KRDU 112051Z 29010G18KT 10SM SCT070 18/00 A3001 RMK AO2 PK WND 31027/2032 SLP160 T01830000 55004 (JBA)","FM-15","7",,,,,,,,,,,,,,,,,,,,,,,,,,,,"2009-07-08"
"72306013722","2020-05-11T16:51:00","FM-15","7",,,,,,,,,,,,,,,,,,,,,,,,,,,,,,,,,,,,,,"30.03","32","64","0.00",,,,"30","30.02","SCT:04 80","29.56","10.00","49","290","20","13",,,,,,,,,,,,,,,,,,,,,,,,,,,,,,,,,,,,,"MET10205/11/20 16:51:02 METAR KRDU 112151Z 29011G17KT 10SM SCT080 18/00 A3003 RMK AO2 SLP166 T01780000 (JBA)","FM-15","7",,,,,,,,,,,,,,,,,,,,,,,,,,,,"2009-07-08"
"72306013722","2020-05-11T17:51:00","FM-15","7",,,,,,,,,,,,,,,,,,,,,,,,,,,,,,,,,,,,,,"30.05","32","61","0.00",,,,"34","30.04","SCT:04 80","29.58","10.00","48","310","18","7",,,,,,,,,,,,,,,,,,,,,,,,,,,,,,,,,,,,,"MET10205/11/20 17:51:02 METAR KRDU 112251Z 31006G16KT 10SM SCT080 16/00 A3005 RMK AO2 SLP172 T01610000 (JBA)","FM-15","7",,,,,,,,,,,,,,,,,,,,,,,,,,,,"2009-07-08"
"72306013722","2020-05-11T18:51:00","FM-15","7",,,,,,,,,,,,,,,,,,,,,,,,,,,,,,,,,,,,,,"30.08","31","58","0.00",,"-0.07","3","36","30.07","FEW:02 80","29.61","10.00","46","VRB",,"8",,,,,,,,,,,,,,,,,,,,,,,,,,,,,,,,,,,,,"MET11805/11/20 18:51:02 METAR KRDU 112351Z 35007KT 10SM FEW080 14/M01 A3008 RMK AO2 SLP184 T01441006 10194 20144 53023 (JBA)","FM-15","7",,,,,,,,,,,,,,,,,,,,,,,,,,,,"2009-07-08"
"72306013722","2020-05-11T19:00:00","FM-12","4",,,,,,,,,,,,,,,,,,,,,,,,,,,,,,,,,,,,,,,"31","58",,,"-0.07","3","36","30.07","74","29.62","9.94","46","350",,"8",,,,,,,,,,,,,,,,,,,,,,,,,,,,,,,,,,,,,"SYN08072306 32866 23507 10144 21006 30030 40184 53023 92351 333 10194 20100 555 91200=","FM-12","4",,,,,,,,,,,,,,,,,,,,,,,,,,,,"2009-07-08"
"72306013722","2020-05-11T19:51:00","FM-15","7",,,,,,,,,,,,,,,,,,,,,,,,,,,,,,,,,,,,,,"30.11","30","55","0.00",,,,"38","30.11","FEW:02 80","29.64","10.00","44","350",,"9",,,,,,,,,,,,,,,,,,,,,,,,,,,,,,,,,,,,,"MET09405/11/20 19:51:01 METAR KRDU 120051Z 35008KT 10SM FEW080 13/M01 A3011 RMK AO2 SLP196 T01281011","FM-15","7",,,,,,,,,,,,,,,,,,,,,,,,,,,,"2009-07-08"
"72306013722","2020-05-11T20:51:00","FM-15","7",,,,,,,,,,,,,,,,,,,,,,,,,,,,,,,,,,,,,,"30.14","30","52","0.00",,,,"43","30.14","CLR:00","29.67","10.00","42","350",,"3",,,,,,,,,,,,,,,,,,,,,,,,,,,,,,,,,,,,,"MET09105/11/20 20:51:01 METAR KRDU 120151Z 35003KT 10SM CLR 11/M01 A3014 RMK AO2 SLP206 T01111011","FM-15","7",,,,,,,,,,,,,,,,,,,,,,,,,,,,"2009-07-08"
"72306013722","2020-05-11T21:51:00","FM-15","7",,,,,,,,,,,,,,,,,,,,,,,,,,,,,,,,,,,,,,"30.16","31","50","0.00",,"-0.08","1","48","30.16","CLR:00","29.69","10.00","42","030",,"5",,,,,,,,,,,,,,,,,,,,,,,,,,,,,,,,,,,,,"MET09705/11/20 21:51:01 METAR KRDU 120251Z 03004KT 10SM CLR 10/M01 A3016 RMK AO2 SLP212 T01001006 51028","FM-15","7",,,,,,,,,,,,,,,,,,,,,,,,,,,,"2009-07-08"
"72306013722","2020-05-11T22:51:00","FM-15","7",,,,,,,,,,,,,,,,,,,,,,,,,,,,,,,,,,,,,,"30.16","31","47","0.00",,,,"54","30.16","CLR:00","29.69","10.00","40","000",,"0",,,,,,,,,,,,,,,,,,,,,,,,,,,,,,,,,,,,,"MET09105/11/20 22:51:02 METAR KRDU 120351Z 00000KT 10SM CLR 08/M01 A3016 RMK AO2 SLP214 T00831006","FM-15","7",,,,,,,,,,,,,,,,,,,,,,,,,,,,"2009-07-08"
"72306013722","2020-05-11T23:51:00","FM-15","7",,,,,,,,,,,,,,,,,,,,,,,,,,,,,,,,,,,,,,"30.17","31","46","0.00",,,,"56","30.17","FEW:02 250","29.70","10.00","40","VRB",,"3",,,,,,,,,,,,,,,,,,,,,,,,,,,,,,,,,,,,,"MET10405/11/20 23:51:02 METAR KRDU 120451Z VRB03KT 10SM FEW250 08/M01 A3017 RMK AO2 SLP217 T00781006 401940078","FM-15","7",,,,,,,,,,,,,,,,,,,,,,,,,,,,"2009-07-08"
"72306013722","2020-05-11T23:59:00","SOD  ","6",,,,,,,,,,,,,,,"37","57","49","30.04","29.56","48","8.4","0","-9.6","8","67","46","270","31","0.00","0","0.0","290","20",,,,,,,,,,,,,,,,,,,,,,,,,,,,,,,,,,,,,,,,,,,,,,,,,,,,,,,,,"SOD73924 HR PRECIPITATION (IN): 0.00 SNOW DEPTH (IN):0     24 HR SNOWFALL (IN):0.0  24 HR MAX TEMP (F): 6724 HR MIN TEMP (F): 46AVERAGE STATION PRESSURE:29.560 MINIMUM SEA LEVEL PRESSURE:29.96 TIME OF OCCURRENCE:0346 PEAK WIND SPEED (MPH): 31 PEAK WIND DIR (DEG):270 PEAK WIND TIME (LST):      FASTEST 2MIN SPEED (MPH): 20FASTEST 2MIN DIR (DEG):290 FASTEST 2MIN TIME (LST):     AVERAGE WIND SPEED (MPH): 8.4 24 HR AVG TEMP (F): 57DEPART FROM NORMAL:-10  HEATING DEGREE DAYS:  8 COOLING DEGREE DAYS:  0 LATEST DAY MAX TEMP (0700-1900 LST):67  LATEST NIGHT MIN TEMP(1900-0800 LST):50 HOURLY INCREMENTAL PRECIPITATION VALUES (IN):.00 0.00 0.00 0.00 0.00 0.00 0.00 0.00 0.00 0.00 0.00 0.00 0.00 0.00 0.00 0.00 0.00 0.00 0.00 0.00 0.00 0.00 0.00 0.00","SOD  ","6",,,,,,,,,,,,,,,,,,,,,,,,,"0512","1911",,"2009-07-08"
"72306013722","2020-05-12T00:51:00","FM-15","7",,,,,,,,,,,,,,,,,,,,,,,,,,,,,,,,,,,,,,"30.17","31","43","0.00",,"-0.01","2","63","30.17","FEW:02 250","29.70","10.00","38","VRB",,"3",,,,,,,,,,,,,,,,,,,,,,,,,,,,,,,,,,,,,"MET11805/12/20 00:51:02 METAR KRDU 120551Z VRB03KT 10SM FEW250 06/M01 A3017 RMK AO2 SLP217 T00611006 10144 20061 52004 (AWB)","FM-15","7",,,,,,,,,,,,,,,,,,,,,,,,,,,,"2009-07-08"
"72306013722","2020-05-12T01:00:00","FM-12","4",,,,,,,,,,,,,,,,,,,,,,,,,,,,,,,,,,,,,,,"31","43",,,"-0.01","2","63","30.17",,"29.71","9.94","38",,,"3",,,,,,,,,,,,,,,,,,,,,,,,,,,,,,,,,,,,,"SYN08072306 32966 2//03 10061 21006 30060 40217 52004 90551 333 10144 20061 555 91206=","FM-12","4",,,,,,,,,,,,,,,,,,,,,,,,,,,,"2009-07-08"
"72306013722","2020-05-12T01:51:00","FM-15","7",,,,,,,,,,,,,,,,,,,,,,,,,,,,,,,,,,,,,,"30.17","30","44","0.00",,,,"58","30.16","FEW:02 250","29.70","10.00","38","000",,"0",,,,,,,,,,,,,,,,,,,,,,,,,,,,,,,,,,,,,"MET10005/12/20 01:51:02 METAR KRDU 120651Z 00000KT 10SM FEW250 07/M01 A3017 RMK AO2 SLP215 T00671011 (AWB)","FM-15","7",,,,,,,,,,,,,,,,,,,,,,,,,,,,"2009-07-08"
"72306013722","2020-05-12T02:51:00","FM-15","7",,,,,,,,,,,,,,,,,,,,,,,,,,,,,,,,,,,,,,"30.18","30","43","0.00",,,,"60","30.17","SCT:04 250","29.71","10.00","38","000",,"0",,,,,,,,,,,,,,,,,,,,,,,,,,,,,,,,,,,,,"MET10005/12/20 02:51:02 METAR KRDU 120751Z 00000KT 10SM SCT250 06/M01 A3018 RMK AO2 SLP218 T00611011 (AWB)","FM-15","7",,,,,,,,,,,,,,,,,,,,,,,,,,,,"2009-07-08"
"72306013722","2020-05-12T03:51:00","FM-15","7",,,,,,,,,,,,,,,,,,,,,,,,,,,,,,,,,,,,,,"30.20","31","42","0.00",,"-0.03","3","65","30.20","BKN:07 250","29.73","10.00","37","000",,"0",,,,,,,,,,,,,,,,,,,,,,,,,,,,,,,,,,,,,"MET10605/12/20 03:51:02 METAR KRDU 120851Z 00000KT 10SM BKN250 06/M01 A3020 RMK AO2 SLP226 T00561006 53009 (AWB)","FM-15","7",,,,,,,,,,,,,,,,,,,,,,,,,,,,"2009-07-08"
"72306013722","2020-05-12T04:51:00","FM-15","7",,,,,,,,,,,,,,,,,,,,,,,,,,,,,,,,,,,,,,"30.22","31","38","0.00",,,,"76","30.21","BKN:07 250","29.75","10.00","35","000",,"0",,,,,,,,,,,,,,,,,,,,,,,,,,,,,,,,,,,,,"MET10005/12/20 04:51:02 METAR KRDU 120951Z 00000KT 10SM BKN250 03/M01 A3022 RMK AO2 SLP231 T00331006 (AWB)","FM-15","7",,,,,,,,,,,,,,,,,,,,,,,,,,,,"2009-07-08"
"72306013722","2020-05-12T05:51:00","FM-15","7",,,,,,,,,,,,,,,,,,,,,,,,,,,,,,,,,,,,,,"30.24","33","41","0.00",,,,"73","30.24","BKN:07 220 BKN:07 250","29.77","10.00","38","000",,"0",,,,,,,,,,,,,,,,,,,,,,,,,,,,,,,,,,,,,"MET10605/12/20 05:51:02 METAR KRDU 121051Z 00000KT 10SM BKN220 BKN250 05/01 A3024 RMK AO2 SLP239 T00500006 (AWB)","FM-15","7",,,,,,,,,,,,,,,,,,,,,,,,,,,,"2009-07-08"
"72306013722","2020-05-12T06:51:00","FM-15","7",,,,,,,,,,,,,,,,,,,,,,,,,,,,,,,,,,,,,,"30.26","37","44","0.00",,"-0.06","3","76","30.26","SCT:04 210 BKN:07 250","29.79","10.00","41","250",,"3",,,,,,,,,,,,,,,,,,,,,,,,,,,,,,,,,,,,,"MET12405/12/20 06:51:02 METAR KRDU 121151Z 25003KT 10SM SCT210 BKN250 07/03 A3026 RMK AO2 SLP248 T00670028 10072 20033 53021 (KAH)","FM-15","7",,,,,,,,,,,,,,,,,,,,,,,,,,,,"2009-07-08"
"72306013722","2020-05-12T07:00:00","FM-12","4",,,,,,,,,,,,,,,,,,,,,,,,,,,,,,,,,,,,,,,"37","44",,,"-0.06","3","76","30.26",,"29.80","9.94","41","250",,"3",,,,,,,,,,,,,,,,,,,,,,,,,,,,,,,,,,,,,"SYN08072306 32966 62503 10067 20028 30090 40248 53021 91151 333 10194 20033 555 91212=","FM-12","4",,,,,,,,,,,,,,,,,,,,,,,,,,,,"2009-07-08"
"72306013722","2020-05-12T07:51:00","FM-15","7",,,,,,,,,,,,,,,,,,,,,,,,,,,,,,,,,,,,,,"30.27","35","50","0.00",,,,"57","30.27","FEW:02 210 BKN:07 250","29.80","10.00","43","VRB",,"7",,,,,,,,,,,,,,,,,,,,,,,,,,,,,,,,,,,,,"MET10605/12/20 07:51:02 METAR KRDU 121251Z VRB06KT 10SM FEW210 BKN250 10/02 A3027 RMK AO2 SLP251 T01000017 (KAH)","FM-15","7",,,,,,,,,,,,,,,,,,,,,,,,,,,,"2009-07-08"
"72306013722","2020-05-12T08:51:00","FM-15","7",,,,,,,,,,,,,,,,,,,,,,,,,,,,,,,,,,,,,,"30.28","34","53","0.00",,,,"48","30.28","SCT:04 45 SCT:04 210 BKN:07 250","29.81","10.00","44","VRB",,"7",,,,,,,,,,,,,,,,,,,,,,,,,,,,,,,,,,,,,"MET11305/12/20 08:51:02 METAR KRDU 121351Z VRB06KT 10SM SCT045 SCT210 BKN250 12/01 A3028 RMK AO2 SLP254 T01170011 (KAH)","FM-15","7",,,,,,,,,,,,,,,,,,,,,,,,,,,,"2009-07-08"
"72306013722","2020-05-12T09:51:00","FM-15","7",,,,,,,,,,,,,,,,,,,,,,,,,,,,,,,,,,,,,,"30.27","33","56","0.00",,"-0.01","0","42","30.27","SCT:04 50 SCT:04 160 BKN:07 250","29.80","10.00","46","360",,"7",,,,,,,,,,,,,,,,,,,,,,,,,,,,,,,,,,,,,"MET11905/12/20 09:51:02 METAR KRDU 121451Z 36006KT 10SM SCT050 SCT160 BKN250 13/01 A3027 RMK AO2 SLP250 T01330006 50003 (KAH)","FM-15","7",,,,,,,,,,,,,,,,,,,,,,,,,,,,"2009-07-08"
"72306013722","2020-05-12T10:51:00","FM-15","7",,,,,,,,,,,,,,,,,,,,,,,,,,,,,,,,,,,,,,"30.25","34","58","0.00",,,,"41","30.25","FEW:02 55 SCT:04 170 BKN:07 250","29.78","10.00","47","VRB",,"7",,,,,,,,,,,,,,,,,,,,,,,,,,,,,,,,,,,,,"MET11305/12/20 10:51:02 METAR KRDU 121551Z VRB06KT 10SM FEW055 SCT170 BKN250 14/01 A3025 RMK AO2 SLP243 T01440011 (KAH)","FM-15","7",,,,,,,,,,,,,,,,,,,,,,,,,,,,"2009-07-08"
"72306013722","2020-05-12T11:51:00","FM-15","7",,,,,,,,,,,,,,,,,,,,,,,,,,,,,,,,,,,,,,"30.23","35","58","0.00",,,,"42","30.23","FEW:02 55 FEW:02 170 BKN:07 250","29.76","10.00","47","VRB",,"3",,,,,,,,,,,,,,,,,,,,,,,,,,,,,,,,,,,,,"MET11305/12/20 11:51:02 METAR KRDU 121651Z VRB03KT 10SM FEW055 FEW170 BKN250 14/02 A3023 RMK AO2 SLP236 T01440017 (KAH)","FM-15","7",,,,,,,,,,,,,,,,,,,,,,,,,,,,"2009-07-08"
"72306013722","2020-05-12T12:51:00","FM-15","7",,,,,,,,,,,,,,,,,,,,,,,,,,,,,,,,,,,,,,"30.21","34","59","0.00",,"+0.06","6","39","30.21","FEW:02 55 FEW:02 170 BKN:07 250","29.74","10.00","47","VRB",,"6",,,,,,,,,,,,,,,,,,,,,,,,,,,,,,,,,,,,,"MET13105/12/20 12:51:02 METAR KRDU 121751Z VRB05KT 10SM FEW055 FEW170 BKN250 15/01 A3021 RMK AO2 SLP231 T01500011 10161 20067 56019 (KAH)","FM-15","7",,,,,,,,,,,,,,,,,,,,,,,,,,,,"2009-07-08"
"72306013722","2020-05-12T13:00:00","FM-12","4",,,,,,,,,,,,,,,,,,,,,,,,,,,,,,,,,,,,,,,"34","59",,,"+0.06","6","39","30.21","57","29.75","9.94","47",,,"6",,,,,,,,,,,,,,,,,,,,,,,,,,,,,,,,,,,,,"SYN08072306 32766 6//05 10150 20011 30073 40231 56019 91751 333 10161 20067 555 91218=","FM-12","4",,,,,,,,,,,,,,,,,,,,,,,,,,,,"2009-07-08"
"72306013722","2020-05-12T13:51:00","FM-15","7",,,,,,,,,,,,,,,,,,,,,,,,,,,,,,,,,,,,,,"30.20","37","63","0.00",,,,"38","30.19","FEW:02 60 FEW:02 170 SCT:04 250","29.73","10.00","50","VRB","22","5",,,,,,,,,,,,,,,,,,,,,,,,,,,,,,,,,,,,,"MET11605/12/20 13:51:02 METAR KRDU 121851Z VRB04G19KT 10SM FEW060 FEW170 SCT250 17/03 A3020 RMK AO2 SLP225 T01720028 (KAH)","FM-15","7",,,,,,,,,,,,,,,,,,,,,,,,,,,,"2009-07-08"
"72306013722","2020-05-12T14:51:00","FM-15","7",,,,,,,,,,,,,,,,,,,,,,,,,,,,,,,,,,,,,,"30.19","37","65","0.00",,,,"36","30.18","FEW:02 60 FEW:02 170 SCT:04 250","29.72","10.00","51","240",,"10",,,,,,,,,,,,,,,,,,,,,,,,,,,,,,,,,,,,,"MET11305/12/20 14:51:02 METAR KRDU 121951Z 24009KT 10SM FEW060 FEW170 SCT250 18/03 A3019 RMK AO2 SLP221 T01830028 (JBA)","FM-15","7",,,,,,,,,,,,,,,,,,,,,,,,,,,,"2009-07-08"
"72306013722","2020-05-12T15:51:00","FM-15","7",,,,,,,,,,,,,,,,,,,,,,,,,,,,,,,,,,,,,,"30.17","36","64","0.00",,"+0.04","6","35","30.17","FEW:02 60 FEW:02 170 SCT:04 250","29.70","10.00","50","VRB","18","5",,,,,,,,,,,,,,,,,,,,,,,,,,,,,,,,,,,,,"MET12205/12/20 15:51:02 METAR KRDU 122051Z VRB04G16KT 10SM FEW060 FEW170 SCT250 18/02 A3017 RMK AO2 SLP216 T01780022 56014 (JBA)","FM-15","7",,,,,,,,,,,,,,,,,,,,,,,,,,,,"2009-07-08"
"72306013722","2020-05-12T16:51:00","FM-15","7",,,,,,,,,,,,,,,,,,,,,,,,,,,,,,,,,,,,,,"30.19","35","64","0.00",,,,"34","30.19","FEW:02 60 BKN:07 250","29.72","10.00","50","270","17","9",,,,,,,,,,,,,,,,,,,,,,,,,,,,,,,,,,,,,"MET10905/12/20 16:51:02 METAR KRDU 122151Z 27008G15KT 10SM FEW060 BKN250 18/02 A3019 RMK AO2 SLP222 T01780017 (JBA)","FM-15","7",,,,,,,,,,,,,,,,,,,,,,,,,,,,"2009-07-08"
"72306013722","2020-05-12T17:51:00","FM-15","7",,,,,,,,,,,,,,,,,,,,,,,,,,,,,,,,,,,,,,"30.19","37","63","0.00",,,,"38","30.19","FEW:02 60 SCT:04 250","29.72","10.00","50","250",,"10",,,,,,,,,,,,,,,,,,,,,,,,,,,,,,,,,,,,,"MET10605/12/20 17:51:02 METAR KRDU 122251Z 25009KT 10SM FEW060 SCT250 17/03 A3019 RMK AO2 SLP223 T01720028 (JBA)","FM-15","7",,,,,,,,,,,,,,,,,,,,,,,,,,,,"2009-07-08"
"72306013722","2020-05-12T18:51:00","FM-15","7",,,,,,,,,,,,,,,,,,,,,,,,,,,,,,,,,,,,,,"30.21","37","58","0.00",,"-0.04","2","46","30.21","FEW:02 60 SCT:04 250","29.74","10.00","48","250",,"6",,,,,,,,,,,,,,,,,,,,,,,,,,,,,,,,,,,,,"MET12405/12/20 18:51:02 METAR KRDU 122351Z 25005KT 10SM FEW060 SCT250 14/03 A3021 RMK AO2 SLP229 T01440028 10183 20144 52013 (JBA)","FM-15","7",,,,,,,,,,,,,,,,,,,,,,,,,,,,"2009-07-08"
"72306013722","2020-05-12T19:00:00","FM-12","4",,,,,,,,,,,,,,,,,,,,,,,,,,,,,,,,,,,,,,,"37","58",,,"-0.04","2","46","30.21","57","29.75","9.94","48","250",,"6",,,,,,,,,,,,,,,,,,,,,,,,,,,,,,,,,,,,,"SYN08072306 32766 42505 10144 20028 30073 40229 52013 92351 333 10183 20033 555 91300=","FM-12","4",,,,,,,,,,,,,,,,,,,,,,,,,,,,"2009-07-08"
"72306013722","2020-05-12T19:51:00","FM-15","7",,,,,,,,,,,,,,,,,,,,,,,,,,,,,,,,,,,,,,"30.22","37","53","0.00",,,,"55","30.22","FEW:02 250","29.75","10.00","46","000",,"0",,,,,,,,,,,,,,,,,,,,,,,,,,,,,,,,,,,,,"MET09305/12/20 19:51:01 METAR KRDU 130051Z 00000KT 10SM FEW250 12/03 A3022 RMK AO2 SLP232 T01170028","FM-15","7",,,,,,,,,,,,,,,,,,,,,,,,,,,,"2009-07-08"
"72306013722","2020-05-12T20:51:00","FM-15","7",,,,,,,,,,,,,,,,,,,,,,,,,,,,,,,,,,,,,,"30.23","39","49","0.00",,,,"69","30.22","FEW:02 250","29.76","10.00","44","000",,"0",,,,,,,,,,,,,,,,,,,,,,,,,,,,,,,,,,,,,"MET09305/12/20 20:51:01 METAR KRDU 130151Z 00000KT 10SM FEW250 09/04 A3023 RMK AO2 SLP235 T00940039","FM-15","7",,,,,,,,,,,,,,,,,,,,,,,,,,,,"2009-07-08"
"72306013722","2020-05-12T21:51:00","FM-15","7",,,,,,,,,,,,,,,,,,,,,,,,,,,,,,,,,,,,,,"30.24","40","50","0.00",,"-0.03","3","68","30.23","CLR:00","29.77","10.00","45","000",,"0",,,,,,,,,,,,,,,,,,,,,,,,,,,,,,,,,,,,,"MET09605/12/20 21:51:01 METAR KRDU 130251Z 00000KT 10SM CLR 10/04 A3024 RMK AO2 SLP238 T01000044 53009","FM-15","7",,,,,,,,,,,,,,,,,,,,,,,,,,,,"2009-07-08"
"72306013722","2020-05-12T22:51:00","FM-15","7",,,,,,,,,,,,,,,,,,,,,,,,,,,,,,,,,,,,,,"30.24","40","48","0.00",,,,"74","30.24","BKN:07 250","29.77","10.00","44","000",,"0",,,,,,,,,,,,,,,,,,,,,,,,,,,,,,,,,,,,,"MET09305/12/20 22:51:02 METAR KRDU 130351Z 00000KT 10SM BKN250 09/04 A3024 RMK AO2 SLP241 T00890044","FM-15","7",,,,,,,,,,,,,,,,,,,,,,,,,,,,"2009-07-08"
"72306013722","2020-05-12T23:51:00","FM-15","7",,,,,,,,,,,,,,,,,,,,,,,,,,,,,,,,,,,,,,"30.25","40","46","0.00",,,,"79","30.24","BKN:07 250","29.78","10.00","43","000",,"0",,,,,,,,,,,,,,,,,,,,,,,,,,,,,,,,,,,,,"MET10305/12/20 23:51:02 METAR KRDU 130451Z 00000KT 10SM BKN250 08/04 A3025 RMK AO2 SLP242 T00780044 401830033","FM-15","7",,,,,,,,,,,,,,,,,,,,,,,,,,,,"2009-07-08"
"72306013722","2020-05-12T23:59:00","SOD  ","6",,,,,,,,,,,,,,,"35","52","54","30.22","29.74","44","3.7","0","-14.9","13","65","38","230","22","0.00","0","0.0","240","16",,,,,,,,,,,,,,,,,,,,,,,,,,,,,,,,,,,,,,,,,,,,,,,,,,,,,,,,,"SOD73924 HR PRECIPITATION (IN): 0.00 SNOW DEPTH (IN):0     24 HR SNOWFALL (IN):0.0  24 HR MAX TEMP (F): 6524 HR MIN TEMP (F): 38AVERAGE STATION PRESSURE:29.740 MINIMUM SEA LEVEL PRESSURE:30.16 TIME OF OCCURRENCE:0152 PEAK WIND SPEED (MPH): 22 PEAK WIND DIR (DEG):230 PEAK WIND TIME (LST):      FASTEST 2MIN SPEED (MPH): 16FASTEST 2MIN DIR (DEG):240 FASTEST 2MIN TIME (LST):     AVERAGE WIND SPEED (MPH): 3.7 24 HR AVG TEMP (F): 52DEPART FROM NORMAL:-15  HEATING DEGREE DAYS: 13 COOLING DEGREE DAYS:  0 LATEST DAY MAX TEMP (0700-1900 LST):65  LATEST NIGHT MIN TEMP(1900-0800 LST):38 HOURLY INCREMENTAL PRECIPITATION VALUES (IN):.00 0.00 0.00 0.00 0.00 0.00 0.00 0.00 0.00 0.00 0.00 0.00 0.00 0.00 0.00 0.00 0.00 0.00 0.00 0.00 0.00 0.00 0.00 0.00","SOD  ","6",,,,,,,,,,,,,,,,,,,,,,,,,"0511","1912",,"2009-07-08"
"72306013722","2020-05-13T00:51:00","FM-15","7",,,,,,,,,,,,,,,,,,,,,,,,,,,,,,,,,,,,,,"30.25","40","45","0.00",,"-0.01","1","83","30.25","BKN:07 250","29.78","10.00","43","000",,"0",,,,,,,,,,,,,,,,,,,,,,,,,,,,,,,,,,,,,"MET11705/13/20 00:51:02 METAR KRDU 130551Z 00000KT 10SM BKN250 07/04 A3025 RMK AO2 SLP243 T00720044 10144 20056 51004 (AWB)","FM-15","7",,,,,,,,,,,,,,,,,,,,,,,,,,,,"2009-07-08"
"72306013722","2020-05-13T01:00:00","FM-12","4",,,,,,,,,,,,,,,,,,,,,,,,,,,,,,,,,,,,,,,"40","45",,,"-0.01","1","83","30.25",,"29.79","9.94","43","000",,"0",,,,,,,,,,,,,,,,,,,,,,,,,,,,,,,,,,,,,"SYN08072306 32966 60000 10072 20044 30087 40243 51004 90551 333 10144 20033 555 91306=","FM-12","4",,,,,,,,,,,,,,,,,,,,,,,,,,,,"2009-07-08"
"72306013722","2020-05-13T01:51:00","FM-15","7",,,,,,,,,,,,,,,,,,,,,,,,,,,,,,,,,,,,,,"30.24","41","46","0.00",,,,"83","30.24","BKN:07 250","29.77","10.00","44","000",,"0",,,,,,,,,,,,,,,,,,,,,,,,,,,,,,,,,,,,,"MET09905/13/20 01:51:02 METAR KRDU 130651Z 00000KT 10SM BKN250 08/05 A3024 RMK AO2 SLP241 T00780050 (AWB)","FM-15","7",,,,,,,,,,,,,,,,,,,,,,,,,,,,"2009-07-08"
"72306013722","2020-05-13T02:51:00","FM-15","7",,,,,,,,,,,,,,,,,,,,,,,,,,,,,,,,,,,,,,"30.27","42","46","0.00",,,,"86","30.27","BKN:07 170 BKN:07 230","29.80","10.00","44","000",,"0",,,,,,,,,,,,,,,,,,,,,,,,,,,,,,,,,,,,,"MET10605/13/20 02:51:02 METAR KRDU 130751Z 00000KT 10SM BKN170 BKN230 08/06 A3027 RMK AO2 SLP250 T00780056 (AWB)","FM-15","7",,,,,,,,,,,,,,,,,,,,,,,,,,,,"2009-07-08"
"72306013722","2020-05-13T03:51:00","FM-15","7",,,,,,,,,,,,,,,,,,,,,,,,,,,,,,,,,,,,,,"30.28","43","48","0.00",,"-0.03","3","83","30.28","BKN:07 130 OVC:08 250","29.81","10.00","46","000",,"0",,,,,,,,,,,,,,,,,,,,,,,,,,,,,,,,,,,,,"MET11205/13/20 03:51:02 METAR KRDU 130851Z 00000KT 10SM BKN130 OVC250 09/06 A3028 RMK AO2 SLP253 T00890061 53011 (AWB)","FM-15","7",,,,,,,,,,,,,,,,,,,,,,,,,,,,"2009-07-08"
"72306013722","2020-05-13T04:51:00","FM-15","7",,,,,,,,,,,,,,,,,,,,,,,,,,,,,,,,,,,,,,"30.31","43","50","0.00",,,,"77","30.30","FEW:02 110 BKN:07 140 OVC:08 250","29.84","10.00","47","360",,"3",,,,,,,,,,,,,,,,,,,,,,,,,,,,,,,,,,,,,"MET11305/13/20 04:51:02 METAR KRDU 130951Z 36003KT 10SM FEW110 BKN140 OVC250 10/06 A3031 RMK AO2 SLP262 T01000061 (AWB)","FM-15","7",,,,,,,,,,,,,,,,,,,,,,,,,,,,"2009-07-08"
"72306013722","2020-05-13T05:51:00","FM-15","7",,,,,,,,,,,,,,,,,,,,,,,,,,,,,,,,,,,,,,"30.33","44","49","0.00",,,,"83","30.32","FEW:02 70 BKN:07 100 OVC:08 250","29.85","10.00","47","000",,"0",,,,,,,,,,,,,,,,,,,,,,,,,,,,,,,,,,,,,"MET11305/13/20 05:51:02 METAR KRDU 131051Z 00000KT 10SM FEW070 BKN100 OVC250 09/07 A3033 RMK AO2 SLP268 T00940067 (AWB)","FM-15","7",,,,,,,,,,,,,,,,,,,,,,,,,,,,"2009-07-08"
"72306013722","2020-05-13T06:51:00","FM-15","7",,,,,,,,,,,,,,,,,,,,,,,,,,,,,,,,,,,,,,"30.35","42","52","0.00",,"-0.07","1","69","30.35","BKN:07 65 BKN:07 90 OVC:08 250","29.88","10.00","47","020",,"3",,,,,,,,,,,,,,,,,,,,,,,,,,,,,,,,,,,,,"MET12505/13/20 06:51:02 METAR KRDU 131151Z 02003KT 10SM BKN065 BKN090 OVC250 11/06 A3035 RMK AO2 SLP278 T01110056 10111 20061 51023","FM-15","7",,,,,,,,,,,,,,,,,,,,,,,,,,,,"2009-07-08"
"72306013722","2020-05-13T07:00:00","FM-12","4",,,,,,,,,,,,,,,,,,,,,,,,,,,,,,,,,,,,,,,"42","52",,,"-0.07","1","69","30.35","57","29.88","9.94","47","020",,"3",,,,,,,,,,,,,,,,,,,,,,,,,,,,,,,,,,,,,"SYN08072306 32766 80203 10111 20056 30120 40278 51023 91151 333 10183 20056 555 91312=","FM-12","4",,,,,,,,,,,,,,,,,,,,,,,,,,,,"2009-07-08"
"72306013722","2020-05-13T07:51:00","FM-15","7",,,,,,,,,,,,,,,,,,,,,,,,,,,,,,,,,,,,,,"30.37","42","54","T",,,,"64","30.36","BKN:07 70 BKN:07 90 OVC:08 250","29.90","10.00","48","VRB",,"3",,,,,,,,,,,,,,,,,,,,,,,,,,,,,,,,,,,,,"MET12805/13/20 07:51:02 METAR KRDU 131251Z VRB03KT 10SM BKN070 BKN090 OVC250 12/06 A3037 RMK AO2 RAB08E33 SLP282 P0000 T01220056 (KAH)","FM-15","7",,,,,,,,,,,,,,,,,,,,,,,,,,,,"2009-07-08"
"72306013722","2020-05-13T08:51:00","FM-15","7",,,,,,,,,,,,,,,,,,,,,,,,,,,,,,,,,,,,,,"30.38","43","56","T",,,,"62","30.38","FEW:02 60 BKN:07 75 OVC:08 90","29.91","10.00","50","140",,"5",,,,,,,,,,,,,,,,,,,,,,,,,,,,,,,,,,,,,"MET12805/13/20 08:51:02 METAR KRDU 131351Z 14004KT 10SM FEW060 BKN075 OVC090 13/06 A3038 RMK AO2 RAB06E51 SLP287 P0000 T01330061 (KAH)","FM-15","7",,,,,,,,,,,,,,,,,,,,,,,,,,,,"2009-07-08"
"72306013722","2020-05-13T09:51:00","FM-15","7",,,,,,,,,,,,,,,,,,,,,,,,,,,,,,,,,,,,,,"30.38","44","58","0.00",,"-0.02","0","60","30.37","BKN:07 60 BKN:07 75 OVC:08 90","29.91","10.00","51","000",,"0",,,,,,,,,,,,,,,,,,,,,,,,,,,,,,,,,,,,,"MET12505/13/20 09:51:02 METAR KRDU 131451Z 00000KT 10SM BKN060 BKN075 OVC090 14/07 A3038 RMK AO2 SLP286 60000 T01440067 50008 (KAH)","FM-15","7",,,,,,,,,,,,,,,,,,,,,,,,,,,,"2009-07-08"
"72306013722","2020-05-13T10:51:00","FM-15","7",,,,,,,,,,,,,,,,,,,,,,,,,,,,,,,,,,,,,,"30.38","44","59","0.00",,,,"58","30.37","BKN:07 50 OVC:08 70","29.91","10.00","51","000",,"0",,,,,,,,,,,,,,,,,,,,,,,,,,,,,,,,,,,,,"MET10805/13/20 10:51:02 METAR KRDU 131551Z 00000KT 10SM BKN050 OVC070 15/07 A3038 RMK AO2 SLP286 T01500067 $ (KAH)","FM-15","7",,,,,,,,,,,,,,,,,,,,,,,,,,,,"2009-07-08"
"72306013722","2020-05-13T11:51:00","FM-15","7",,,,,,,,,,,,,,,,,,,,,,,,,,,,,,,,,,,,,,"30.37","45","59","0.00",,,,"60","30.36","BKN:07 48 OVC:08 60","29.90","10.00","52","000",,"0",,,,,,,,,,,,,,,,,,,,,,,,,,,,,,,,,,,,,"MET10805/13/20 11:51:02 METAR KRDU 131651Z 00000KT 10SM BKN048 OVC060 15/07 A3037 RMK AO2 SLP282 T01500072 $ (KAH)","FM-15","7",,,,,,,,,,,,,,,,,,,,,,,,,,,,"2009-07-08"
"72306013722","2020-05-13T12:51:00","FM-15","7",,,,,,,,,,,,,,,,,,,,,,,,,,,,,,,,,,,,,,"30.35","45","61","0.00",,"+0.03","8","56","30.35","FEW:02 48 BKN:07 55 OVC:08 70","29.88","10.00","53","000",,"0",,,,,,,,,,,,,,,,,,,,,,,,,,,,,,,,,,,,,"MET13705/13/20 12:51:02 METAR KRDU 131751Z 00000KT 10SM FEW048 BKN055 OVC070 16/07 A3035 RMK AO2 SLP277 60000 T01610072 10161 20111 58009 (KAH)","FM-15","7",,,,,,,,,,,,,,,,,,,,,,,,,,,,"2009-07-08"
"72306013722","2020-05-13T13:00:00","FM-12","4",,,,,,,,,,,,,,,,,,,,,,,,,,,,,,,,,,,,,,,"45","61",,,"+0.03","8","56","30.35","41","29.88","9.94","53","000",,"0",,,,,,,,,,,,,,,,,,,,,,,,,,,,,,,,,,,,,"SYN08672306 12666 80000 10161 20072 30120 40277 58009 69901 91751 333 10161 20111 555 91318=","FM-12","4",,,,,,,,,,,,,,,,,,,,,,,,,,,,"2009-07-08"
"72306013722","2020-05-13T13:51:00","FM-15","7",,,,,,,,,,,,,,,,,,,,,,,,,,,,,,,,,,,,,,"30.33","45","64","0.00",,,,"50","30.33","BKN:07 55 BKN:07 75 BKN:07 100","29.85","10.00","54","000",,"0",,,,,,,,,,,,,,,,,,,,,,,,,,,,,,,,,,,,,"MET11505/13/20 13:51:02 METAR KRDU 131851Z 00000KT 10SM BKN055 BKN075 BKN100 18/07 A3033 RMK AO2 SLP271 T01780072 $ (KAH)","FM-15","7",,,,,,,,,,,,,,,,,,,,,,,,,,,,"2009-07-08"
"72306013722","2020-05-13T14:51:00","FM-15","7",,,,,,,,,,,,,,,,,,,,,,,,,,,,,,,,,,,,,,"30.31","47","66","0.00",,,,"50","30.30","SCT:04 55 BKN:07 100 BKN:07 140","29.84","10.00","56","300",,"5",,,,,,,,,,,,,,,,,,,,,,,,,,,,,,,,,,,,,"MET11505/13/20 14:51:02 METAR KRDU 131951Z 30004KT 10SM SCT055 BKN100 BKN140 19/08 A3031 RMK AO2 SLP261 T01890083 $ (JBA)","FM-15","7",,,,,,,,,,,,,,,,,,,,,,,,,,,,"2009-07-08"
"72306013722","2020-05-13T15:51:00","FM-15","7",,,,,,,,,,,,,,,,,,,,,,,,,,,,,,,,,,,,,,"30.29","48","69","0.00",,"+0.06","6","47","30.29","FEW:02 45 BKN:07 65 BKN:07 140","29.82","10.00","57","240",,"7",,,,,,,,,,,,,,,,,,,,,,,,,,,,,,,,,,,,,"MET12105/13/20 15:51:02 METAR KRDU 132051Z 24006KT 10SM FEW045 BKN065 BKN140 21/09 A3029 RMK AO2 SLP256 T02060089 56019 $ (JBA)","FM-15","7",,,,,,,,,,,,,,,,,,,,,,,,,,,,"2009-07-08"
"72306013722","2020-05-13T16:51:00","FM-15","7",,,,,,,,,,,,,,,,,,,,,,,,,,,,,,,,,,,,,,"30.29","48","67","0.00",,,,"51","30.29","FEW:02 45 SCT:04 95 BKN:07 140","29.82","10.00","57","240",,"8",,,,,,,,,,,,,,,,,,,,,,,,,,,,,,,,,,,,,"MET11505/13/20 16:51:02 METAR KRDU 132151Z 24007KT 10SM FEW045 SCT095 BKN140 19/09 A3029 RMK AO2 SLP256 T01940089 $ (JBA)","FM-15","7",,,,,,,,,,,,,,,,,,,,,,,,,,,,"2009-07-08"
"72306013722","2020-05-13T17:51:00","FM-15","7",,,,,,,,,,,,,,,,,,,,,,,,,,,,,,,,,,,,,,"30.29","48","66","0.00",,,,"52","30.29","BKN:07 90 BKN:07 140","29.82","10.00","56","260",,"5",,,,,,,,,,,,,,,,,,,,,,,,,,,,,,,,,,,,,"MET10805/13/20 17:51:02 METAR KRDU 132251Z 26004KT 10SM BKN090 BKN140 19/09 A3029 RMK AO2 SLP256 T01890089 $ (JBA)","FM-15","7",,,,,,,,,,,,,,,,,,,,,,,,,,,,"2009-07-08"
"72306013722","2020-05-13T18:51:00","FM-15","7",,,,,,,,,,,,,,,,,,,,,,,,,,,,,,,,,,,,,,"30.30","48","64","0.00",,"-0.01","3","56","30.30","BKN:07 100 BKN:07 140","29.83","10.00","55","000",,"0",,,,,,,,,,,,,,,,,,,,,,,,,,,,,,,,,,,,,"MET12605/13/20 18:51:02 METAR KRDU 132351Z 00000KT 10SM BKN100 BKN140 18/09 A3030 RMK AO2 SLP260 T01780089 10211 20156 53003 $ (JBA)","FM-15","7",,,,,,,,,,,,,,,,,,,,,,,,,,,,"2009-07-08"
"72306013722","2020-05-13T19:00:00","FM-12","4",,,,,,,,,,,,,,,,,,,,,,,,,,,,,,,,,,,,,,,"48","64",,,"-0.01","3","56","30.30",,"29.83","9.94","55","000",,"0",,,,,,,,,,,,,,,,,,,,,,,,,,,,,,,,,,,,,"SYN08072306 32966 60000 10178 20089 30103 40260 53003 92351 333 10211 20061 555 91400=","FM-12","4",,,,,,,,,,,,,,,,,,,,,,,,,,,,"2009-07-08"
"72306013722","2020-05-13T19:51:00","FM-15","7",,,,,,,,,,,,,,,,,,,,,,,,,,,,,,,,,,,,,,"30.31","50","61","0.00",,,,"67","30.30","BKN:07 85 OVC:08 250","29.84","10.00","55","000",,"0",,,,,,,,,,,,,,,,,,,,,,,,,,,,,,,,,,,,,"MET10205/13/20 19:51:01 METAR KRDU 140051Z 00000KT 10SM BKN085 OVC250 16/10 A3031 RMK AO2 SLP261 T01610100 $","FM-15","7",,,,,,,,,,,,,,,,,,,,,,,,,,,,"2009-07-08"
"72306013722","2020-05-13T20:51:00","FM-15","7",,,,,,,,,,,,,,,,,,,,,,,,,,,,,,,,,,,,,,"30.31","51","60","0.00",,,,"72","30.31","BKN:07 85 OVC:08 250","29.84","10.00","55","000",,"0",,,,,,,,,,,,,,,,,,,,,,,,,,,,,,,,,,,,,"MET10205/13/20 20:51:01 METAR KRDU 140151Z 00000KT 10SM BKN085 OVC250 16/11 A3031 RMK AO2 SLP263 T01560106 $","FM-15","7",,,,,,,,,,,,,,,,,,,,,,,,,,,,"2009-07-08"
"72306013722","2020-05-13T21:51:00","FM-15","7",,,,,,,,,,,,,,,,,,,,,,,,,,,,,,,,,,,,,,"30.32","52","59","0.00",,"-0.02","3","78","30.32","OVC:08 80","29.85","10.00","55","000",,"0",,,,,,,,,,,,,,,,,,,,,,,,,,,,,,,,,,,,,"MET10105/13/20 21:51:01 METAR KRDU 140251Z 00000KT 10SM OVC080 15/11 A3032 RMK AO2 SLP266 T01500111 53006 $","FM-15","7",,,,,,,,,,,,,,,,,,,,,,,,,,,,"2009-07-08"
"72306013722","2020-05-13T22:51:00","FM-15","7",,,,,,,,,,,,,,,,,,,,,,,,,,,,,,,,,,,,,,"30.31","51","60","0.00",,,,"72","30.31","BKN:07 75 OVC:08 90","29.84","10.00","55","000",,"0",,,,,,,,,,,,,,,,,,,,,,,,,,,,,,,,,,,,,"MET10205/13/20 22:51:02 METAR KRDU 140351Z 00000KT 10SM BKN075 OVC090 16/11 A3031 RMK AO2 SLP263 T01560106 $","FM-15","7",,,,,,,,,,,,,,,,,,,,,,,,,,,,"2009-07-08"
"72306013722","2020-05-13T23:51:00","FM-15","7",,,,,,,,,,,,,,,,,,,,,,,,,,,,,,,,,,,,,,"30.31","52","59","0.00",,,,"78","30.31","BKN:07 75 OVC:08 90","29.84","10.00","55","000",,"0",,,,,,,,,,,,,,,,,,,,,,,,,,,,,,,,,,,,,"MET11205/13/20 23:51:02 METAR KRDU 140451Z 00000KT 10SM BKN075 OVC090 15/11 A3031 RMK AO2 SLP263 T01500111 402110056 $","FM-15","7",,,,,,,,,,,,,,,,,,,,,,,,,,,,"2009-07-08"
"72306013722","2020-05-13T23:59:00","SOD  ","6",,,,,,,,,,,,,,,"46","56","66","30.31","29.83","51","1.6","0","-11.1","9","70","42","230","15","T","0","0.0","240","10",,,,,,,,,,,,,,,,,,,,,,,,,,,,,,,,,,,,,,,,,,,,,,,,,,,,,,,,,"SOD71324 HR PRECIPITATION (IN):    T SNOW DEPTH (IN):0    24 HR MAX TEMP (F): 7024 HR MIN TEMP (F): 42AVERAGE STATION PRESSURE:29.835 MINIMUM SEA LEVEL PRESSURE:30.24 TIME OF OCCURRENCE:0207 PEAK WIND SPEED (MPH): 15 PEAK WIND DIR (DEG):230 PEAK WIND TIME (LST):      FASTEST 2MIN SPEED (MPH): 10FASTEST 2MIN DIR (DEG):240 FASTEST 2MIN TIME (LST):     AVERAGE WIND SPEED (MPH): 1.6 24 HR AVG TEMP (F): 56DEPART FROM NORMAL:-11  HEATING DEGREE DAYS:  9 COOLING DEGREE DAYS:  0 LATEST DAY MAX TEMP (0700-1900 LST):70  LATEST NIGHT MIN TEMP(1900-0800 LST):42 HOURLY INCREMENTAL PRECIPITATION VALUES (IN):.00 0.00 0.00 0.00 0.00 0.00 0.00 T    T    0.00 0.00 0.00 0.00 0.00 0.00 0.00 0.00 0.00 0.00 0.00 0.00 0.00 0.00 0.00","SOD  ","6",,,,,,,,,,,,,,,,,,,,,,,,,"0511","1913",,"2009-07-08"
"72306013722","2020-05-14T00:51:00","FM-15","7",,,,,,,,,,,,,,,,,,,,,,,,,,,,,,,,,,,,,,"30.31","51","60","0.00",,"+0.01","6","72","30.30","FEW:02 60 BKN:07 80 BKN:07 110","29.84","10.00","55","140",,"6",,,,,,,,,,,,,,,,,,,,,,,,,,,,,,,,,,,,,"MET13305/14/20 00:51:02 METAR KRDU 140551Z 14005KT 10SM FEW060 BKN080 BKN110 16/11 A3031 RMK AO2 SLP261 T01560106 10178 20144 56005 $ (AWB)","FM-15","7",,,,,,,,,,,,,,,,,,,,,,,,,,,,"2009-07-08"
"72306013722","2020-05-14T01:00:00","FM-12","4",,,,,,,,,,,,,,,,,,,,,,,,,,,,,,,,,,,,,,,"51","60",,,"+0.01","6","72","30.30","57","29.85","9.94","55","140",,"6",,,,,,,,,,,,,,,,,,,,,,,,,,,,,,,,,,,,,"SYN08072306 32766 61405 10156 20106 30107 40261 56005 90551 333 10178 20061 555 91406=","FM-12","4",,,,,,,,,,,,,,,,,,,,,,,,,,,,"2009-07-08"
"72306013722","2020-05-14T01:51:00","FM-15","7",,,,,,,,,,,,,,,,,,,,,,,,,,,,,,,,,,,,,,"30.29","50","60","0.00",,,,"70","30.29","FEW:02 50 BKN:07 85 BKN:07 110","29.82","10.00","55","000",,"0",,,,,,,,,,,,,,,,,,,,,,,,,,,,,,,,,,,,,"MET11505/14/20 01:51:02 METAR KRDU 140651Z 00000KT 10SM FEW050 BKN085 BKN110 16/10 A3029 RMK AO2 SLP256 T01560100 $ (AWB)","FM-15","7",,,,,,,,,,,,,,,,,,,,,,,,,,,,"2009-07-08"
"72306013722","2020-05-14T02:51:00","FM-15","7",,,,,,,,,,,,,,,,,,,,,,,,,,,,,,,,,,,,,,"30.29","52","58","0.00",,,,"81","30.28","FEW:02 50 BKN:07 95 OVC:08 110","29.82","10.00","55","000",,"0",,,,,,,,,,,,,,,,,,,,,,,,,,,,,,,,,,,,,"MET11505/14/20 02:51:02 METAR KRDU 140751Z 00000KT 10SM FEW050 BKN095 OVC110 14/11 A3029 RMK AO2 SLP254 T01440111 $ (AWB)","FM-15","7",,,,,,,,,,,,,,,,,,,,,,,,,,,,"2009-07-08"
"72306013722","2020-05-14T03:51:00","FM-15","7",,,,,,,,,,,,,,,,,,,,,,,,,,,,,,,,,,,,,,"30.29","51","59","0.00",,"+0.02","6","75","30.28","FEW:02 90 BKN:07 110","29.82","10.00","55","190",,"5",,,,,,,,,,,,,,,,,,,,,,,,,,,,,,,,,,,,,"MET11405/14/20 03:51:02 METAR KRDU 140851Z 19004KT 10SM FEW090 BKN110 15/11 A3029 RMK AO2 SLP253 T01500106 56006 $ (AWB)","FM-15","7",,,,,,,,,,,,,,,,,,,,,,,,,,,,"2009-07-08"
"72306013722","2020-05-14T04:51:00","FM-15","7",,,,,,,,,,,,,,,,,,,,,,,,,,,,,,,,,,,,,,"30.29","52","59","0.00",,,,"78","30.28","FEW:02 90 BKN:07 110","29.82","10.00","55","240",,"5",,,,,,,,,,,,,,,,,,,,,,,,,,,,,,,,,,,,,"MET10805/14/20 04:51:02 METAR KRDU 140951Z 24004KT 10SM FEW090 BKN110 15/11 A3029 RMK AO2 SLP255 T01500111 $ (AWB)","FM-15","7",,,,,,,,,,,,,,,,,,,,,,,,,,,,"2009-07-08"
"72306013722","2020-05-14T05:51:00","FM-15","7",,,,,,,,,,,,,,,,,,,,,,,,,,,,,,,,,,,,,,"30.32","52","59","0.00",,,,"78","30.31","SCT:04 70 BKN:07 110","29.85","10.00","55","220",,"7",,,,,,,,,,,,,,,,,,,,,,,,,,,,,,,,,,,,,"MET10805/14/20 05:51:02 METAR KRDU 141051Z 22006KT 10SM SCT070 BKN110 15/11 A3032 RMK AO2 SLP265 T01500111 $ (AWB)","FM-15","7",,,,,,,,,,,,,,,,,,,,,,,,,,,,"2009-07-08"
"72306013722","2020-05-14T06:51:00","FM-15","7",,,,,,,,,,,,,,,,,,,,,,,,,,,,,,,,,,,,,,"30.33","53","61","0.00",,"-0.05","3","75","30.32","BKN:07 70 BKN:07 110","29.85","10.00","57","230",,"6",,,,,,,,,,,,,,,,,,,,,,,,,,,,,,,,,,,,,"MET12605/14/20 06:51:02 METAR KRDU 141151Z 23005KT 10SM BKN070 BKN110 16/12 A3033 RMK AO2 SLP269 T01610117 10161 20144 53016 $ (KAH)","FM-15","7",,,,,,,,,,,,,,,,,,,,,,,,,,,,"2009-07-08"
"72306013722","2020-05-14T07:00:00","FM-12","4",,,,,,,,,,,,,,,,,,,,,,,,,,,,,,,,,,,,,,,"53","61",,,"-0.05","3","75","30.32","74","29.87","9.94","57","230",,"6",,,,,,,,,,,,,,,,,,,,,,,,,,,,,,,,,,,,,"SYN08072306 32866 62305 10161 20117 30114 40269 53016 91151 333 10211 20144 555 91412=","FM-12","4",,,,,,,,,,,,,,,,,,,,,,,,,,,,"2009-07-08"
"72306013722","2020-05-14T07:51:00","FM-15","7",,,,,,,,,,,,,,,,,,,,,,,,,,,,,,,,,,,,,,"30.34","54","64","0.00",,,,"70","30.33","SCT:04 70 SCT:04 90 BKN:07 120","29.87","10.00","58","230",,"8",,,,,,,,,,,,,,,,,,,,,,,,,,,,,,,,,,,,,"MET11305/14/20 07:51:02 METAR KRDU 141251Z 23007KT 10SM SCT070 SCT090 BKN120 18/12 A3034 RMK AO2 SLP270 T01780122 (KAH)","FM-15","7",,,,,,,,,,,,,,,,,,,,,,,,,,,,"2009-07-08"
"72306013722","2020-05-14T08:51:00","FM-15","7",,,,,,,,,,,,,,,,,,,,,,,,,,,,,,,,,,,,,,"30.35","54","67","0.00",,,,"63","30.34","SCT:04 75 SCT:04 90 BKN:07 120","29.88","10.00","60","250",,"8",,,,,,,,,,,,,,,,,,,,,,,,,,,,,,,,,,,,,"MET11305/14/20 08:51:02 METAR KRDU 141351Z 25007KT 10SM SCT075 SCT090 BKN120 19/12 A3035 RMK AO2 SLP273 T01940122 (KAH)","FM-15","7",,,,,,,,,,,,,,,,,,,,,,,,,,,,"2009-07-08"
"72306013722","2020-05-14T09:51:00","FM-15","7",,,,,,,,,,,,,,,,,,,,,,,,,,,,,,,,,,,,,,"30.33","53","71","0.00",,"+0.01","8","53","30.32","FEW:02 75 SCT:04 90 BKN:07 110","29.85","10.00","61","230",,"13",,,,,,,,,,,,,,,,,,,,,,,,,,,,,,,,,,,,,"MET11905/14/20 09:51:02 METAR KRDU 141451Z 23011KT 10SM FEW075 SCT090 BKN110 22/12 A3033 RMK AO2 SLP267 T02170117 58002 (KAH)","FM-15","7",,,,,,,,,,,,,,,,,,,,,,,,,,,,"2009-07-08"
"72306013722","2020-05-14T10:51:00","FM-15","7",,,,,,,,,,,,,,,,,,,,,,,,,,,,,,,,,,,,,,"30.32","53","70","0.00",,,,"55","30.31","BKN:07 80 BKN:07 110 BKN:07 250","29.85","10.00","60","230",,"11",,,,,,,,,,,,,,,,,,,,,,,,,,,,,,,,,,,,,"MET11305/14/20 10:51:02 METAR KRDU 141551Z 23010KT 10SM BKN080 BKN110 BKN250 21/12 A3032 RMK AO2 SLP263 T02110117 (KAH)","FM-15","7",,,,,,,,,,,,,,,,,,,,,,,,,,,,"2009-07-08"
"72306013722","2020-05-14T11:51:00","FM-15","7",,,,,,,,,,,,,,,,,,,,,,,,,,,,,,,,,,,,,,"30.31","54","68","T",,,,"61","30.30","FEW:02 35 BKN:07 75 OVC:08 110","29.84","10.00","60","250",,"8",,,,,,,,,,,,,,,,,,,,,,,,,,,,,,,,,,,,,"MET12805/14/20 11:51:02 METAR KRDU 141651Z 25007KT 10SM FEW035 BKN075 OVC110 20/12 A3031 RMK AO2 RAB27E48 SLP260 P0000 T02000122 (KAH)","FM-15","7",,,,,,,,,,,,,,,,,,,,,,,,,,,,"2009-07-08"
"72306013722","2020-05-14T12:51:00","FM-15","7",,,,,,,,,,,,,,,,,,,,,,,,,,,,,,,,,,,,,,"30.28","57","71","0.00",,"+0.04","8","61","30.27","FEW:02 40 BKN:07 75 BKN:07 110","29.81","10.00","63","180",,"8",,,,,,,,,,,,,,,,,,,,,,,,,,,,,,,,,,,,,"MET13705/14/20 12:51:02 METAR KRDU 141751Z 18007KT 10SM FEW040 BKN075 BKN110 22/14 A3028 RMK AO2 SLP251 60000 T02170139 10228 20161 58015 (KAH)","FM-15","7",,,,,,,,,,,,,,,,,,,,,,,,,,,,"2009-07-08"
"72306013722","2020-05-14T13:00:00","FM-12","4",,,,,,,,,,,,,,,,,,,,,,,,,,,,,,,,,,,,,,,"57","71",,,"+0.04","8","61","30.27","41","29.82","9.94","63","180",,"8",,,,,,,,,,,,,,,,,,,,,,,,,,,,,,,,,,,,,"SYN08672306 12666 61807 10217 20139 30097 40251 58015 69901 91751 333 10228 20156 555 91418=","FM-12","4",,,,,,,,,,,,,,,,,,,,,,,,,,,,"2009-07-08"
"72306013722","2020-05-14T13:51:00","FM-15","7",,,,,,,,,,,,,,,,,,,,,,,,,,,,,,,,,,,,,,"30.24","58","76","0.00",,,,"54","30.23","FEW:02 40 SCT:04 70 BKN:07 110","29.77","10.00","65","VRB",,"7",,,,,,,,,,,,,,,,,,,,,,,,,,,,,,,,,,,,,"MET11305/14/20 13:51:02 METAR KRDU 141851Z VRB06KT 10SM FEW040 SCT070 BKN110 24/14 A3024 RMK AO2 SLP238 T02440144 (KAH)","FM-15","7",,,,,,,,,,,,,,,,,,,,,,,,,,,,"2009-07-08"
"72306013722","2020-05-14T14:51:00","FM-15","7",,,,,,,,,,,,,,,,,,,,,,,,,,,,,,,,,,,,,,"30.22","59","79","0.00",,,,"50","30.21","FEW:02 49 SCT:04 75 BKN:07 110","29.75","10.00","67","230",,"9",,,,,,,,,,,,,,,,,,,,,,,,,,,,,,,,,,,,,"MET11305/14/20 14:51:02 METAR KRDU 141951Z 23008KT 10SM FEW049 SCT075 BKN110 26/15 A3022 RMK AO2 SLP229 T02610150 (JBA)","FM-15","7",,,,,,,,,,,,,,,,,,,,,,,,,,,,"2009-07-08"
"72306013722","2020-05-14T15:51:00","FM-15","7",,,,,,,,,,,,,,,,,,,,,,,,,,,,,,,,,,,,,,"30.20","57","77","0.00",,"+0.08","6","50","30.19","SCT:04 55 BKN:07 75 BKN:07 110","29.73","10.00","65","230",,"13",,,,,,,,,,,,,,,,,,,,,,,,,,,,,,,,,,,,,"MET11905/14/20 15:51:02 METAR KRDU 142051Z 23011KT 10SM SCT055 BKN075 BKN110 25/14 A3020 RMK AO2 SLP223 T02500139 56027 (JBA)","FM-15","7",,,,,,,,,,,,,,,,,,,,,,,,,,,,"2009-07-08"
"72306013722","2020-05-14T16:51:00","FM-15","7",,,,,,,,,,,,,,,,,,,,,,,,,,,,,,,,,,,,,,"30.18","58","80","0.00",,,,"47","30.17","SCT:04 55 BKN:07 250","29.71","10.00","66","210",,"13",,,,,,,,,,,,,,,,,,,,,,,,,,,,,,,,,,,,,"MET10605/14/20 16:51:02 METAR KRDU 142151Z 21011KT 10SM SCT055 BKN250 27/14 A3018 RMK AO2 SLP216 T02670144 (JBA)","FM-15","7",,,,,,,,,,,,,,,,,,,,,,,,,,,,"2009-07-08"
"72306013722","2020-05-14T17:51:00","FM-15","7",,,,,,,,,,,,,,,,,,,,,,,,,,,,,,,,,,,,,,"30.17","57","78","0.00",,,,"48","30.15","FEW:02 55 SCT:04 250","29.70","10.00","65","230",,"10",,,,,,,,,,,,,,,,,,,,,,,,,,,,,,,,,,,,,"MET10605/14/20 17:51:02 METAR KRDU 142251Z 23009KT 10SM FEW055 SCT250 26/14 A3017 RMK AO2 SLP211 T02560139 (JBA)","FM-15","7",,,,,,,,,,,,,,,,,,,,,,,,,,,,"2009-07-08"
"72306013722","2020-05-14T18:51:00","FM-15","7",,,,,,,,,,,,,,,,,,,,,,,,,,,,,,,,,,,,,,"30.17","57","75","0.00",,"+0.03","5","54","30.16","FEW:02 55 SCT:04 250","29.70","10.00","64","200",,"8",,,,,,,,,,,,,,,,,,,,,,,,,,,,,,,,,,,,,"MET12405/14/20 18:51:02 METAR KRDU 142351Z 20007KT 10SM FEW055 SCT250 24/14 A3017 RMK AO2 SLP212 T02390139 10272 20217 55011 (JBA)","FM-15","7",,,,,,,,,,,,,,,,,,,,,,,,,,,,"2009-07-08"
"72306013722","2020-05-14T19:00:00","FM-12","4",,,,,,,,,,,,,,,,,,,,,,,,,,,,,,,,,,,,,,,"57","75",,,"+0.03","5","54","30.16","57","29.71","9.94","64","200",,"8",,,,,,,,,,,,,,,,,,,,,,,,,,,,,,,,,,,,,"SYN08072306 32766 42007 10239 20139 30060 40212 55011 92351 333 10272 20144 555 91500=","FM-12","4",,,,,,,,,,,,,,,,,,,,,,,,,,,,"2009-07-08"
"72306013722","2020-05-14T19:51:00","FM-15","7",,,,,,,,,,,,,,,,,,,,,,,,,,,,,,,,,,,,,,"30.18","57","73","0.00",,,,"57","30.17","SCT:04 60 SCT:04 250","29.71","10.00","63","190",,"6",,,,,,,,,,,,,,,,,,,,,,,,,,,,,,,,,,,,,"MET10005/14/20 19:51:01 METAR KRDU 150051Z 19005KT 10SM SCT060 SCT250 23/14 A3018 RMK AO2 SLP217 T02280139","FM-15","7",,,,,,,,,,,,,,,,,,,,,,,,,,,,"2009-07-08"
"72306013722","2020-05-14T20:51:00","FM-15","7",,,,,,,,,,,,,,,,,,,,,,,,,,,,,,,,,,,,,,"30.20","57","70","0.00",,,,"64","30.19","FEW:02 60 FEW:02 250","29.73","10.00","62","200",,"6",,,,,,,,,,,,,,,,,,,,,,,,,,,,,,,,,,,,,"MET10005/14/20 20:51:01 METAR KRDU 150151Z 20005KT 10SM FEW060 FEW250 21/14 A3020 RMK AO2 SLP222 T02110139","FM-15","7",,,,,,,,,,,,,,,,,,,,,,,,,,,,"2009-07-08"
"72306013722","2020-05-14T21:51:00","FM-15","7",,,,,,,,,,,,,,,,,,,,,,,,,,,,,,,,,,,,,,"30.22","57","70","0.00",,"-0.05","3","64","30.21","FEW:02 60 FEW:02 250","29.75","10.00","62","200",,"13",,,,,,,,,,,,,,,,,,,,,,,,,,,,,,,,,,,,,"MET10605/14/20 21:51:01 METAR KRDU 150251Z 20011KT 10SM FEW060 FEW250 21/14 A3022 RMK AO2 SLP229 T02110139 53017","FM-15","7",,,,,,,,,,,,,,,,,,,,,,,,,,,,"2009-07-08"
"72306013722","2020-05-14T22:51:00","FM-15","7",,,,,,,,,,,,,,,,,,,,,,,,,,,,,,,,,,,,,,"30.22","56","68","0.00",,,,"65","30.21","FEW:02 50 FEW:02 120","29.75","10.00","61","210",,"13",,,,,,,,,,,,,,,,,,,,,,,,,,,,,,,,,,,,,"MET10005/14/20 22:51:02 METAR KRDU 150351Z 21011KT 10SM FEW050 FEW120 20/13 A3022 RMK AO2 SLP230 T02000133","FM-15","7",,,,,,,,,,,,,,,,,,,,,,,,,,,,"2009-07-08"
"72306013722","2020-05-14T23:51:00","FM-15","7",,,,,,,,,,,,,,,,,,,,,,,,,,,,,,,,,,,,,,"30.21","57","66","0.00",,,,"73","30.20","FEW:02 50 FEW:02 120 FEW:02 250","29.74","10.00","61","220",,"13",,,,,,,,,,,,,,,,,,,,,,,,,,,,,,,,,,,,,"MET11705/14/20 23:51:02 METAR KRDU 150451Z 22011KT 10SM FEW050 FEW120 FEW250 19/14 A3021 RMK AO2 SLP228 T01890139 402720144","FM-15","7",,,,,,,,,,,,,,,,,,,,,,,,,,,,"2009-07-08"
"72306013722","2020-05-14T23:59:00","SOD  ","6",,,,,,,,,,,,,,,"55","70","63","30.25","29.80","60","8.1","5","2.6","0","81","58","210","22","T","0","0.0","210","16",,,,,,,,,,,,,,,,,,,,,,,,,,,,,,,,,,,,,,,,,,,,,,,,,,,,,,,,,"SOD73924 HR PRECIPITATION (IN):    T SNOW DEPTH (IN):0     24 HR SNOWFALL (IN):0.0  24 HR MAX TEMP (F): 8124 HR MIN TEMP (F): 58AVERAGE STATION PRESSURE:29.795 MINIMUM SEA LEVEL PRESSURE:30.15 TIME OF OCCURRENCE:1849 PEAK WIND SPEED (MPH): 22 PEAK WIND DIR (DEG):210 PEAK WIND TIME (LST):      FASTEST 2MIN SPEED (MPH): 16FASTEST 2MIN DIR (DEG):210 FASTEST 2MIN TIME (LST):     AVERAGE WIND SPEED (MPH): 8.1 24 HR AVG TEMP (F): 70DEPART FROM NORMAL:  3  HEATING DEGREE DAYS:  0 COOLING DEGREE DAYS:  5 LATEST DAY MAX TEMP (0700-1900 LST):81  LATEST NIGHT MIN TEMP(1900-0800 LST):58 HOURLY INCREMENTAL PRECIPITATION VALUES (IN):.00 0.00 0.00 0.00 0.00 0.00 0.00 0.00 0.00 0.00 0.00 T    0.00 0.00 0.00 0.00 0.00 0.00 0.00 0.00 0.00 0.00 0.00 0.00","SOD  ","6",,,,,,,,,,,,,,,,,,,,,,,,,"0510","1914",,"2009-07-08"
"72306013722","2020-05-15T00:51:00","FM-15","7",,,,,,,,,,,,,,,,,,,,,,,,,,,,,,,,,,,,,,"30.20","57","65","0.00",,"+0.02","8","76","30.19","FEW:02 50 FEW:02 120 FEW:02 250","29.73","10.00","60","210",,"11",,,,,,,,,,,,,,,,,,,,,,,,,,,,,,,,,,,,,"MET13105/15/20 00:51:02 METAR KRDU 150551Z 21010KT 10SM FEW050 FEW120 FEW250 18/14 A3020 RMK AO2 SLP223 T01830139 10239 20183 58006 (AWB)","FM-15","7",,,,,,,,,,,,,,,,,,,,,,,,,,,,"2009-07-08"
"72306013722","2020-05-15T01:00:00","FM-12","4",,,,,,,,,,,,,,,,,,,,,,,,,,,,,,,,,,,,,,,"57","65",,,"+0.02","8","76","30.19","57","29.74","9.94","60","210",,"11",,,,,,,,,,,,,,,,,,,,,,,,,,,,,,,,,,,,,"SYN08072306 32766 22110 10183 20139 30070 40223 58006 90551 333 10239 20144 555 91506=","FM-12","4",,,,,,,,,,,,,,,,,,,,,,,,,,,,"2009-07-08"
"72306013722","2020-05-15T01:51:00","FM-15","7",,,,,,,,,,,,,,,,,,,,,,,,,,,,,,,,,,,,,,"30.18","57","63","0.00",,,,"81","30.17","FEW:02 50 FEW:02 120 FEW:02 250","29.71","10.00","60","210",,"9",,,,,,,,,,,,,,,,,,,,,,,,,,,,,,,,,,,,,"MET11305/15/20 01:51:02 METAR KRDU 150651Z 21008KT 10SM FEW050 FEW120 FEW250 17/14 A3018 RMK AO2 SLP216 T01720139 (AWB)","FM-15","7",,,,,,,,,,,,,,,,,,,,,,,,,,,,"2009-07-08"
"72306013722","2020-05-15T02:51:00","FM-15","7",,,,,,,,,,,,,,,,,,,,,,,,,,,,,,,,,,,,,,"30.17","57","61","0.00",,,,"87","30.16","SCT:04 250","29.70","10.00","59","230",,"8",,,,,,,,,,,,,,,,,,,,,,,,,,,,,,,,,,,,,"MET09905/15/20 02:51:02 METAR KRDU 150751Z 23007KT 10SM SCT250 16/14 A3017 RMK AO2 SLP212 T01610139 (AWB)","FM-15","7",,,,,,,,,,,,,,,,,,,,,,,,,,,,"2009-07-08"
"72306013722","2020-05-15T03:51:00","FM-15","7",,,,,,,,,,,,,,,,,,,,,,,,,,,,,,,,,,,,,,"30.16","58","62","0.00",,"+0.04","6","86","30.15","BKN:07 250","29.69","10.00","60","220",,"9",,,,,,,,,,,,,,,,,,,,,,,,,,,,,,,,,,,,,"MET10505/15/20 03:51:02 METAR KRDU 150851Z 22008KT 10SM BKN250 17/14 A3016 RMK AO2 SLP210 T01670144 56013 (AWB)","FM-15","7",,,,,,,,,,,,,,,,,,,,,,,,,,,,"2009-07-08"
"72306013722","2020-05-15T04:51:00","FM-15","7",,,,,,,,,,,,,,,,,,,,,,,,,,,,,,,,,,,,,,"30.16","58","61","0.00",,,,"90","30.15","BKN:07 250","29.69","10.00","59","220",,"7",,,,,,,,,,,,,,,,,,,,,,,,,,,,,,,,,,,,,"MET09905/15/20 04:51:02 METAR KRDU 150951Z 22006KT 10SM BKN250 16/14 A3016 RMK AO2 SLP211 T01610144 (AWB)","FM-15","7",,,,,,,,,,,,,,,,,,,,,,,,,,,,"2009-07-08"
"72306013722","2020-05-15T05:51:00","FM-15","7",,,,,,,,,,,,,,,,,,,,,,,,,,,,,,,,,,,,,,"30.20","58","61","0.00",,,,"90","30.18","FEW:02 120 BKN:07 250","29.73","10.00","59","230",,"7",,,,,,,,,,,,,,,,,,,,,,,,,,,,,,,,,,,,,"MET10605/15/20 05:51:02 METAR KRDU 151051Z 23006KT 10SM FEW120 BKN250 16/14 A3020 RMK AO2 SLP221 T01610144 (AWB)","FM-15","7",,,,,,,,,,,,,,,,,,,,,,,,,,,,"2009-07-08"
"72306013722","2020-05-15T06:51:00","FM-15","7",,,,,,,,,,,,,,,,,,,,,,,,,,,,,,,,,,,,,,"30.23","59","64","0.00",,"-0.07","3","84","30.22","FEW:02 120 BKN:07 250","29.76","10.00","61","250",,"8",,,,,,,,,,,,,,,,,,,,,,,,,,,,,,,,,,,,,"MET12405/15/20 06:51:02 METAR KRDU 151151Z 25007KT 10SM FEW120 BKN250 18/15 A3023 RMK AO2 SLP233 T01780150 10183 20156 53023 (KAH)","FM-15","7",,,,,,,,,,,,,,,,,,,,,,,,,,,,"2009-07-08"
"72306013722","2020-05-15T07:00:00","FM-12","4",,,,,,,,,,,,,,,,,,,,,,,,,,,,,,,,,,,,,,,"59","64",,,"-0.07","3","84","30.22",,"29.77","9.94","61","250",,"8",,,,,,,,,,,,,,,,,,,,,,,,,,,,,,,,,,,,,"SYN08072306 32966 62507 10178 20150 30080 40233 53023 91151 333 10272 20156 555 91512=","FM-12","4",,,,,,,,,,,,,,,,,,,,,,,,,,,,"2009-07-08"
"72306013722","2020-05-15T07:51:00","FM-15","7",,,,,,,,,,,,,,,,,,,,,,,,,,,,,,,,,,,,,,"30.24","60","67","0.00",,,,"79","30.23","FEW:02 15 FEW:02 180 BKN:07 250","29.77","10.00","63","240",,"11",,,,,,,,,,,,,,,,,,,,,,,,,,,,,,,,,,,,,"MET11305/15/20 07:51:02 METAR KRDU 151251Z 24010KT 10SM FEW015 FEW180 BKN250 19/16 A3024 RMK AO2 SLP236 T01940156 (KAH)","FM-15","7",,,,,,,,,,,,,,,,,,,,,,,,,,,,"2009-07-08"
"72306013722","2020-05-15T08:51:00","FM-15","7",,,,,,,,,,,,,,,,,,,,,,,,,,,,,,,,,,,,,,"30.23","60","71","0.00",,,,"68","30.21","FEW:02 25 FEW:02 180 BKN:07 250","29.76","10.00","64","240",,"15",,,,,,,,,,,,,,,,,,,,,,,,,,,,,,,,,,,,,"MET11305/15/20 08:51:02 METAR KRDU 151351Z 24013KT 10SM FEW025 FEW180 BKN250 22/16 A3023 RMK AO2 SLP231 T02170156 (KAH)","FM-15","7",,,,,,,,,,,,,,,,,,,,,,,,,,,,"2009-07-08"
"72306013722","2020-05-15T09:51:00","FM-15","7",,,,,,,,,,,,,,,,,,,,,,,,,,,,,,,,,,,,,,"30.21","60","73","0.00",,"+0.02","8","64","30.20","FEW:02 30 BKN:07 250","29.74","10.00","65","230",,"15",,,,,,,,,,,,,,,,,,,,,,,,,,,,,,,,,,,,,"MET11205/15/20 09:51:02 METAR KRDU 151451Z 23013KT 10SM FEW030 BKN250 23/16 A3021 RMK AO2 SLP226 T02280156 58006 (KAH)","FM-15","7",,,,,,,,,,,,,,,,,,,,,,,,,,,,"2009-07-08"
"72306013722","2020-05-15T10:51:00","FM-15","7",,,,,,,,,,,,,,,,,,,,,,,,,,,,,,,,,,,,,,"30.20","60","77","0.00",,,,"56","30.18","FEW:02 40 BKN:07 250","29.73","10.00","66","240",,"9",,,,,,,,,,,,,,,,,,,,,,,,,,,,,,,,,,,,,"MET10605/15/20 10:51:02 METAR KRDU 151551Z 24008KT 10SM FEW040 BKN250 25/16 A3020 RMK AO2 SLP220 T02500156 (KAH)","FM-15","7",,,,,,,,,,,,,,,,,,,,,,,,,,,,"2009-07-08"
"72306013722","2020-05-15T11:51:00","FM-15","7",,,,,,,,,,,,,,,,,,,,,,,,,,,,,,,,,,,,,,"30.17","61","79","0.00",,,,"54","30.16","SCT:04 42 BKN:07 250","29.70","10.00","68","240",,"11",,,,,,,,,,,,,,,,,,,,,,,,,,,,,,,,,,,,,"MET10605/15/20 11:51:02 METAR KRDU 151651Z 24010KT 10SM SCT042 BKN250 26/16 A3017 RMK AO2 SLP212 T02610161 (KAH)","FM-15","7",,,,,,,,,,,,,,,,,,,,,,,,,,,,"2009-07-08"
"72306013722","2020-05-15T12:51:00","FM-15","7",,,,,,,,,,,,,,,,,,,,,,,,,,,,,,,,,,,,,,"30.13","62","82","0.00",,"+0.07","8","51","30.12","SCT:04 45 BKN:07 250","29.66","10.00","69","220","22","14",,,,,,,,,,,,,,,,,,,,,,,,,,,,,,,,,,,,,"MET12705/15/20 12:51:02 METAR KRDU 151751Z 22012G19KT 10SM SCT045 BKN250 28/17 A3013 RMK AO2 SLP200 T02780167 10278 20178 58025 (KAH)","FM-15","7",,,,,,,,,,,,,,,,,,,,,,,,,,,,"2009-07-08"
"72306013722","2020-05-15T13:00:00","FM-12","4",,,,,,,,,,,,,,,,,,,,,,,,,,,,,,,,,,,,,,,"62","82",,,"+0.07","8","51","30.12","41","29.67","9.94","69","220",,"14",,,,,,,,,,,,,,,,,,,,,,,,,,,,,,,,,,,,,"SYN08672306 32666 62212 10278 20167 30047 40200 58025 91751 333 10278 20178 91019 555 91518=","FM-12","4",,,,,,,,,,,,,,,,,,,,,,,,,,,,"2009-07-08"
"72306013722","2020-05-15T13:51:00","FM-15","7",,,,,,,,,,,,,,,,,,,,,,,,,,,,,,,,,,,,,,"30.12","61","80","0.00",,,,"52","30.10","SCT:04 46 BKN:07 250","29.65","10.00","68","230",,"13",,,,,,,,,,,,,,,,,,,,,,,,,,,,,,,,,,,,,"MET12405/15/20 13:51:02 METAR KRDU 151851Z 23011KT 10SM SCT046 BKN250 27/16 A3012 RMK AO2 PK WND 24026/1833 SLP194 T02670161 (KAH)","FM-15","7",,,,,,,,,,,,,,,,,,,,,,,,,,,,"2009-07-08"
"72306013722","2020-05-15T14:51:00","FM-15","7",,,,,,,,,,,,,,,,,,,,,,,,,,,,,,,,,,,,,,"30.09","60","79","0.00",,,,"52","30.08","BKN:07 50 BKN:07 250","29.62","10.00","67","210",,"10",,,,,,,,,,,,,,,,,,,,,,,,,,,,,,,,,,,,,"MET10605/15/20 14:51:02 METAR KRDU 151951Z 21009KT 10SM BKN050 BKN250 26/16 A3009 RMK AO2 SLP186 T02610156 (JBA)","FM-15","7",,,,,,,,,,,,,,,,,,,,,,,,,,,,"2009-07-08"
"72306013722","2020-05-15T15:51:00","FM-15","7",,,,,,,,,,,,,,,,,,,,,,,,,,,,,,,,,,,,,,"30.07","58","79","0.00",,"+0.07","8","49","30.06","SCT:04 50 BKN:07 250","29.60","10.00","66","220",,"15",,,,,,,,,,,,,,,,,,,,,,,,,,,,,,,,,,,,,"MET11205/15/20 15:51:02 METAR KRDU 152051Z 22013KT 10SM SCT050 BKN250 26/14 A3007 RMK AO2 SLP178 T02610144 58023 (JBA)","FM-15","7",,,,,,,,,,,,,,,,,,,,,,,,,,,,"2009-07-08"
"72306013722","2020-05-15T16:51:00","FM-15","7",,,,,,,,,,,,,,,,,,,,,,,,,,,,,,,,,,,,,,"30.06","58","79","0.00",,,,"49","30.05","SCT:04 50 BKN:07 60 BKN:07 250","29.59","10.00","66","230",,"14",,,,,,,,,,,,,,,,,,,,,,,,,,,,,,,,,,,,,"MET11305/15/20 16:51:02 METAR KRDU 152151Z 23012KT 10SM SCT050 BKN060 BKN250 26/14 A3006 RMK AO2 SLP177 T02610144 (JBA)","FM-15","7",,,,,,,,,,,,,,,,,,,,,,,,,,,,"2009-07-08"
"72306013722","2020-05-15T17:51:00","FM-15","7",,,,,,,,,,,,,,,,,,,,,,,,,,,,,,,,,,,,,,"30.06","58","77","0.00",,,,"52","30.05","SCT:04 60 BKN:07 250","29.59","10.00","65","220",,"11",,,,,,,,,,,,,,,,,,,,,,,,,,,,,,,,,,,,,"MET10605/15/20 17:51:02 METAR KRDU 152251Z 22010KT 10SM SCT060 BKN250 25/14 A3006 RMK AO2 SLP175 T02500144 (JBA)","FM-15","7",,,,,,,,,,,,,,,,,,,,,,,,,,,,"2009-07-08"
"72306013722","2020-05-15T18:51:00","FM-15","7",,,,,,,,,,,,,,,,,,,,,,,,,,,,,,,,,,,,,,"30.06","58","75","0.00",,"+0.01","6","55","30.05","FEW:02 60 SCT:04 250","29.59","10.00","65","220",,"8",,,,,,,,,,,,,,,,,,,,,,,,,,,,,,,,,,,,,"MET12405/15/20 18:51:02 METAR KRDU 152351Z 22007KT 10SM FEW060 SCT250 24/14 A3006 RMK AO2 SLP175 T02390144 10283 20239 56003 (JBA)","FM-15","7",,,,,,,,,,,,,,,,,,,,,,,,,,,,"2009-07-08"
"72306013722","2020-05-15T19:00:00","FM-12","4",,,,,,,,,,,,,,,,,,,,,,,,,,,,,,,,,,,,,,,"58","75",,,"+0.01","6","55","30.05","57","29.60","9.94","65","220",,"8",,,,,,,,,,,,,,,,,,,,,,,,,,,,,,,,,,,,,"SYN08072306 32766 42207 10239 20144 30023 40175 56003 92351 333 10283 20156 555 91600=","FM-12","4",,,,,,,,,,,,,,,,,,,,,,,,,,,,"2009-07-08"
"72306013722","2020-05-15T19:51:00","FM-15","7",,,,,,,,,,,,,,,,,,,,,,,,,,,,,,,,,,,,,,"30.06","58","74","0.00",,,,"57","30.05","FEW:02 250","29.59","10.00","64","190",,"7",,,,,,,,,,,,,,,,,,,,,,,,,,,,,,,,,,,,,"MET09305/15/20 19:51:01 METAR KRDU 160051Z 19006KT 10SM FEW250 23/14 A3006 RMK AO2 SLP175 T02330144","FM-15","7",,,,,,,,,,,,,,,,,,,,,,,,,,,,"2009-07-08"
"72306013722","2020-05-15T20:51:00","FM-15","7",,,,,,,,,,,,,,,,,,,,,,,,,,,,,,,,,,,,,,"30.08","58","71","0.00",,,,"63","30.06","FEW:02 250","29.61","10.00","63","190",,"6",,,,,,,,,,,,,,,,,,,,,,,,,,,,,,,,,,,,,"MET09305/15/20 20:51:01 METAR KRDU 160151Z 19005KT 10SM FEW250 22/14 A3008 RMK AO2 SLP181 T02170144","FM-15","7",,,,,,,,,,,,,,,,,,,,,,,,,,,,"2009-07-08"
"72306013722","2020-05-15T21:51:00","FM-15","7",,,,,,,,,,,,,,,,,,,,,,,,,,,,,,,,,,,,,,"30.09","59","71","0.00",,"-0.03","3","66","30.08","CLR:00","29.62","10.00","64","190",,"10",,,,,,,,,,,,,,,,,,,,,,,,,,,,,,,,,,,,,"MET09605/15/20 21:51:01 METAR KRDU 160251Z 19009KT 10SM CLR 22/15 A3009 RMK AO2 SLP185 T02170150 53009","FM-15","7",,,,,,,,,,,,,,,,,,,,,,,,,,,,"2009-07-08"
"72306013722","2020-05-15T22:51:00","FM-15","7",,,,,,,,,,,,,,,,,,,,,,,,,,,,,,,,,,,,,,"30.09","60","70","0.00",,,,"71","30.07","CLR:00","29.62","10.00","64","210",,"11",,,,,,,,,,,,,,,,,,,,,,,,,,,,,,,,,,,,,"MET09005/15/20 22:51:02 METAR KRDU 160351Z 21010KT 10SM CLR 21/16 A3009 RMK AO2 SLP184 T02110156","FM-15","7",,,,,,,,,,,,,,,,,,,,,,,,,,,,"2009-07-08"
"72306013722","2020-05-15T23:51:00","FM-15","7",,,,,,,,,,,,,,,,,,,,,,,,,,,,,,,,,,,,,,"30.09","60","68","0.00",,,,"76","30.08","CLR:00","29.62","10.00","63","210",,"13",,,,,,,,,,,,,,,,,,,,,,,,,,,,,,,,,,,,,"MET10005/15/20 23:51:02 METAR KRDU 160451Z 21011KT 10SM CLR 20/16 A3009 RMK AO2 SLP185 T02000156 402830156","FM-15","7",,,,,,,,,,,,,,,,,,,,,,,,,,,,"2009-07-08"
"72306013722","2020-05-15T23:59:00","SOD  ","6",,,,,,,,,,,,,,,"59","72","67","30.13","29.68","64","10.6","7","4.3","0","83","60","240","30","0.00","0","0.0","230","20",,,,,,,,,,,,,,,,,,,,,,,,,,,,,,,,,,,,,,,,,,,,,,,,,,,,,,,,,"SOD73924 HR PRECIPITATION (IN): 0.00 SNOW DEPTH (IN):0     24 HR SNOWFALL (IN):0.0  24 HR MAX TEMP (F): 8324 HR MIN TEMP (F): 60AVERAGE STATION PRESSURE:29.680 MINIMUM SEA LEVEL PRESSURE:30.04 TIME OF OCCURRENCE:1905 PEAK WIND SPEED (MPH): 30 PEAK WIND DIR (DEG):240 PEAK WIND TIME (LST):      FASTEST 2MIN SPEED (MPH): 20FASTEST 2MIN DIR (DEG):230 FASTEST 2MIN TIME (LST):     AVERAGE WIND SPEED (MPH):10.6 24 HR AVG TEMP (F): 72DEPART FROM NORMAL:  4  HEATING DEGREE DAYS:  0 COOLING DEGREE DAYS:  7 LATEST DAY MAX TEMP (0700-1900 LST):83  LATEST NIGHT MIN TEMP(1900-0800 LST):60 HOURLY INCREMENTAL PRECIPITATION VALUES (IN):.00 0.00 0.00 0.00 0.00 0.00 0.00 0.00 0.00 0.00 0.00 0.00 0.00 0.00 0.00 0.00 0.00 0.00 0.00 0.00 0.00 0.00 0.00 0.00","SOD  ","6",,,,,,,,,,,,,,,,,,,,,,,,,"0509","1914",,"2009-07-08"
"72306013722","2020-05-16T00:51:00","FM-15","7",,,,,,,,,,,,,,,,,,,,,,,,,,,,,,,,,,,,,,"30.08","59","66","0.00",,"+0.01","8","78","30.06","CLR:00","29.61","10.00","62","210",,"10",,,,,,,,,,,,,,,,,,,,,,,,,,,,,,,,,,,,,"MET11405/16/20 00:51:02 METAR KRDU 160551Z 21009KT 10SM CLR 19/15 A3008 RMK AO2 SLP179 T01890150 10244 20189 58004 (SMK)","FM-15","7",,,,,,,,,,,,,,,,,,,,,,,,,,,,"2009-07-08"
"72306013722","2020-05-16T01:00:00","FM-12","4",,,,,,,,,,,,,,,,,,,,,,,,,,,,,,,,,,,,,,,"59","66",,,"+0.01","8","78","30.06",,"29.62","9.94","62","210",,"10",,,,,,,,,,,,,,,,,,,,,,,,,,,,,,,,,,,,,"SYN08072306 32966 02109 10189 20150 30030 40179 58004 90551 333 10244 20156 555 91606=","FM-12","4",,,,,,,,,,,,,,,,,,,,,,,,,,,,"2009-07-08"
"72306013722","2020-05-16T01:51:00","FM-15","7",,,,,,,,,,,,,,,,,,,,,,,,,,,,,,,,,,,,,,"30.07","59","63","0.00",,,,"87","30.06","CLR:00","29.60","10.00","61","230",,"7",,,,,,,,,,,,,,,,,,,,,,,,,,,,,,,,,,,,,"MET09605/16/20 01:51:02 METAR KRDU 160651Z 23006KT 10SM CLR 17/15 A3007 RMK AO2 SLP178 T01720150 (SMK)","FM-15","7",,,,,,,,,,,,,,,,,,,,,,,,,,,,"2009-07-08"
"72306013722","2020-05-16T02:51:00","FM-15","7",,,,,,,,,,,,,,,,,,,,,,,,,,,,,,,,,,,,,,"30.05","59","63","0.00",,,,"87","30.04","CLR:00","29.58","10.00","61","220",,"7",,,,,,,,,,,,,,,,,,,,,,,,,,,,,,,,,,,,,"MET09605/16/20 02:51:02 METAR KRDU 160751Z 22006KT 10SM CLR 17/15 A3005 RMK AO2 SLP174 T01720150 (SMK)","FM-15","7",,,,,,,,,,,,,,,,,,,,,,,,,,,,"2009-07-08"
"72306013722","2020-05-16T03:51:00","FM-15","7",,,,,,,,,,,,,,,,,,,,,,,,,,,,,,,,,,,,,,"30.05","59","61","0.00",,"+0.03","7","93","30.03","CLR:00","29.58","10.00","60","240",,"5",,,,,,,,,,,,,,,,,,,,,,,,,,,,,,,,,,,,,"MET10205/16/20 03:51:02 METAR KRDU 160851Z 24004KT 10SM CLR 16/15 A3005 RMK AO2 SLP171 T01610150 57009 (SMK)","FM-15","7",,,,,,,,,,,,,,,,,,,,,,,,,,,,"2009-07-08"
"72306013722","2020-05-16T04:51:00","FM-15","7",,,,,,,,,,,,,,,,,,,,,,,,,,,,,,,,,,,,,,"30.06","59","61","0.00",,,,"93","30.05","CLR:00","29.59","10.00","60","220",,"6",,,,,,,,,,,,,,,,,,,,,,,,,,,,,,,,,,,,,"MET09605/16/20 04:51:02 METAR KRDU 160951Z 22005KT 10SM CLR 16/15 A3006 RMK AO2 SLP175 T01610150 (SMK)","FM-15","7",,,,,,,,,,,,,,,,,,,,,,,,,,,,"2009-07-08"
"72306013722","2020-05-16T05:51:00","FM-15","7",,,,,,,,,,,,,,,,,,,,,,,,,,,,,,,,,,,,,,"30.08","60","62","0.00",,,,"93","30.07","CLR:00","29.61","10.00","61","220",,"7",,,,,,,,,,,,,,,,,,,,,,,,,,,,,,,,,,,,,"MET09505/16/20 05:51:02 METAR KRDU 161051Z 22006KT 10SM CLR 17/16 A3008 RMK AO2 SLP182 T01670156 (VD)","FM-15","7",,,,,,,,,,,,,,,,,,,,,,,,,,,,"2009-07-08"
"72306013722","2020-05-16T06:51:00","FM-15","7",,,,,,,,,,,,,,,,,,,,,,,,,,,,,,,,,,,,,,"30.09","62","67","0.00",,"-0.04","3","84","30.08","FEW:02 250","29.62","10.00","64","240",,"9",,,,,,,,,,,,,,,,,,,,,,,,,,,,,,,,,,,,,"MET11605/16/20 06:51:02 METAR KRDU 161151Z 24008KT 10SM FEW250 19/17 A3009 RMK AO2 SLP187 T01940167 10194 20156 53015 (VD)","FM-15","7",,,,,,,,,,,,,,,,,,,,,,,,,,,,"2009-07-08"
"72306013722","2020-05-16T07:00:00","FM-12","4",,,,,,,,,,,,,,,,,,,,,,,,,,,,,,,,,,,,,,,"62","67",,,"-0.04","3","84","30.08",,"29.63","9.94","64","240",,"9",,,,,,,,,,,,,,,,,,,,,,,,,,,,,,,,,,,,,"SYN08072306 32966 22408 10194 20167 30033 40187 53015 91151 333 10283 20156 555 91612=","FM-12","4",,,,,,,,,,,,,,,,,,,,,,,,,,,,"2009-07-08"
"72306013722","2020-05-16T07:51:00","FM-15","7",,,,,,,,,,,,,,,,,,,,,,,,,,,,,,,,,,,,,,"30.10","63","71","0.00",,,,"76","30.09","FEW:02 250","29.63","10.00","66","240",,"8",,,,,,,,,,,,,,,,,,,,,,,,,,,,,,,,,,,,,"MET09805/16/20 07:51:02 METAR KRDU 161251Z 24007KT 10SM FEW250 22/17 A3010 RMK AO2 SLP189 T02170172 (VD)","FM-15","7",,,,,,,,,,,,,,,,,,,,,,,,,,,,"2009-07-08"
"72306013722","2020-05-16T08:51:00","FM-15","7",,,,,,,,,,,,,,,,,,,,,,,,,,,,,,,,,,,,,,"30.09","63","75","0.00",,,,"66","30.08","SCT:04 250","29.62","10.00","67","250",,"11",,,,,,,,,,,,,,,,,,,,,,,,,,,,,,,,,,,,,"MET09805/16/20 08:51:02 METAR KRDU 161351Z 25010KT 10SM SCT250 24/17 A3009 RMK AO2 SLP186 T02390172 (VD)","FM-15","7",,,,,,,,,,,,,,,,,,,,,,,,,,,,"2009-07-08"
"72306013722","2020-05-16T09:51:00","FM-15","7",,,,,,,,,,,,,,,,,,,,,,,,,,,,,,,,,,,,,,"30.09","64","78","0.00",,"+0.00","8","62","30.07","SCT:04 250","29.62","10.00","69","230",,"7",,,,,,,,,,,,,,,,,,,,,,,,,,,,,,,,,,,,,"MET10405/16/20 09:51:02 METAR KRDU 161451Z 23006KT 10SM SCT250 26/18 A3009 RMK AO2 SLP184 T02560178 58001 (VD)","FM-15","7",,,,,,,,,,,,,,,,,,,,,,,,,,,,"2009-07-08"
"72306013722","2020-05-16T10:51:00","FM-15","7",,,,,,,,,,,,,,,,,,,,,,,,,,,,,,,,,,,,,,"30.08","63","80","0.00",,,,"56","30.07","BKN:07 250","29.61","10.00","69","VRB",,"9",,,,,,,,,,,,,,,,,,,,,,,,,,,,,,,,,,,,,"MET09805/16/20 10:51:02 METAR KRDU 161551Z 27008KT 10SM BKN250 27/17 A3008 RMK AO2 SLP182 T02670172 (VD)","FM-15","7",,,,,,,,,,,,,,,,,,,,,,,,,,,,"2009-07-08"
"72306013722","2020-05-16T11:51:00","FM-15","7",,,,,,,,,,,,,,,,,,,,,,,,,,,,,,,,,,,,,,"30.08","64","83","0.00",,,,"53","30.06","FEW:02 50 BKN:07 250","29.61","10.00","71","330",,"6",,,,,,,,,,,,,,,,,,,,,,,,,,,,,,,,,,,,,"MET10505/16/20 11:51:02 METAR KRDU 161651Z 33005KT 10SM FEW050 BKN250 28/18 A3008 RMK AO2 SLP180 T02830178 (VD)","FM-15","7",,,,,,,,,,,,,,,,,,,,,,,,,,,,"2009-07-08"
"72306013722","2020-05-16T12:51:00","FM-15","7",,,,,,,,,,,,,,,,,,,,,,,,,,,,,,,,,,,,,,"30.05","64","85","0.00",,"+0.04","8","50","30.03","FEW:02 50 SCT:04 250","29.58","10.00","71","090",,"6",,,,,,,,,,,,,,,,,,,,,,,,,,,,,,,,,,,,,"MET12305/16/20 12:51:02 METAR KRDU 161751Z 09005KT 10SM FEW050 SCT250 29/18 A3005 RMK AO2 SLP171 T02940178 10294 20194 58013 (VD)","FM-15","7",,,,,,,,,,,,,,,,,,,,,,,,,,,,"2009-07-08"
"72306013722","2020-05-16T13:00:00","FM-12","4",,,,,,,,,,,,,,,,,,,,,,,,,,,,,,,,,,,,,,,"64","85",,,"+0.04","8","50","30.03","57","29.59","9.94","71","090",,"6",,,,,,,,,,,,,,,,,,,,,,,,,,,,,,,,,,,,,"SYN08072306 32766 40905 10294 20178 30020 40171 58013 91751 333 10294 20194 555 91618=","FM-12","4",,,,,,,,,,,,,,,,,,,,,,,,,,,,"2009-07-08"
"72306013722","2020-05-16T13:51:00","FM-15","7",,,,,,,,,,,,,,,,,,,,,,,,,,,,,,,,,,,,,,"30.03","64","88","0.00",,,,"45","30.02","FEW:02 50 SCT:04 250","29.56","10.00","72","210",,"6",,,,,,,,,,,,,,,,,,,,,,,,,,,,,,,,,,,,,"MET10505/16/20 13:51:02 METAR KRDU 161851Z 21005KT 10SM FEW050 SCT250 31/18 A3003 RMK AO2 SLP165 T03110178 (VD)","FM-15","7",,,,,,,,,,,,,,,,,,,,,,,,,,,,"2009-07-08"
"72306013722","2020-05-16T14:51:00","FM-15","7",,,,,,,,,,,,,,,,,,,,,,,,,,,,,,,,,,,,,,"30.01","60","88","0.00",,,,"39","30.00","FEW:02 50 SCT:04 250","29.54","10.00","70","150",,"7",,,,,,,,,,,,,,,,,,,,,,,,,,,,,,,,,,,,,"MET10505/16/20 14:51:02 METAR KRDU 161951Z 15006KT 10SM FEW050 SCT250 31/16 A3001 RMK AO2 SLP158 T03110156 (HA)","FM-15","7",,,,,,,,,,,,,,,,,,,,,,,,,,,,"2009-07-08"
"72306013722","2020-05-16T15:51:00","FM-15","7",,,,,,,,,,,,,,,,,,,,,,,,,,,,,,,,,,,,,,"30.00","60","88","0.00",,"+0.05","6","39","29.98","SCT:04 65 SCT:04 250","29.53","10.00","70","VRB",,"3",,,,,,,,,,,,,,,,,,,,,,,,,,,,,,,,,,,,,"MET11105/16/20 15:51:02 METAR KRDU 162051Z VRB03KT 10SM SCT065 SCT250 31/16 A3000 RMK AO2 SLP153 T03110156 56018 (HA)","FM-15","7",,,,,,,,,,,,,,,,,,,,,,,,,,,,"2009-07-08"
"72306013722","2020-05-16T16:51:00","FM-15","7",,,,,,,,,,,,,,,,,,,,,,,,,,,,,,,,,,,,,,"30.00","60","87","0.00",,,,"40","29.98","SCT:04 65 SCT:04 250","29.53","10.00","70","130",,"7",,,,,,,,,,,,,,,,,,,,,,,,,,,,,,,,,,,,,"MET10505/16/20 16:51:02 METAR KRDU 162151Z 13006KT 10SM SCT065 SCT250 31/16 A3000 RMK AO2 SLP152 T03060156 (HA)","FM-15","7",,,,,,,,,,,,,,,,,,,,,,,,,,,,"2009-07-08"
"72306013722","2020-05-16T17:51:00","FM-15","7",,,,,,,,,,,,,,,,,,,,,,,,,,,,,,,,,,,,,,"30.01","60","84","0.00",,,,"44","29.99","SCT:04 65 SCT:04 250","29.54","10.00","69","160",,"7",,,,,,,,,,,,,,,,,,,,,,,,,,,,,,,,,,,,,"MET10505/16/20 17:51:02 METAR KRDU 162251Z 16006KT 10SM SCT065 SCT250 29/16 A3001 RMK AO2 SLP156 T02890156 (HA)","FM-15","7",,,,,,,,,,,,,,,,,,,,,,,,,,,,"2009-07-08"
"72306013722","2020-05-16T18:51:00","FM-15","7",,,,,,,,,,,,,,,,,,,,,,,,,,,,,,,,,,,,,,"30.02","62","81","0.00",,"-0.02","3","53","30.01","FEW:02 65 BKN:07 250","29.55","10.00","69","140",,"6",,,,,,,,,,,,,,,,,,,,,,,,,,,,,,,,,,,,,"MET12305/16/20 18:51:02 METAR KRDU 162351Z 14005KT 10SM FEW065 BKN250 27/17 A3002 RMK AO2 SLP161 T02720167 10317 20272 53007 (HA)","FM-15","7",,,,,,,,,,,,,,,,,,,,,,,,,,,,"2009-07-08"
"72306013722","2020-05-16T19:00:00","FM-12","4",,,,,,,,,,,,,,,,,,,,,,,,,,,,,,,,,,,,,,,"62","81",,,"-0.02","3","53","30.01","57","29.56","9.94","69","140",,"6",,,,,,,,,,,,,,,,,,,,,,,,,,,,,,,,,,,,,"SYN08072306 32766 61405 10272 20167 30010 40161 53007 92351 333 10317 20156 555 91700=","FM-12","4",,,,,,,,,,,,,,,,,,,,,,,,,,,,"2009-07-08"
"72306013722","2020-05-16T19:51:00","FM-15","7",,,,,,,,,,,,,,,,,,,,,,,,,,,,,,,,,,,,,,"30.03","61","78","0.00",,,,"56","30.01","FEW:02 65 SCT:04 250","29.56","10.00","67","150",,"5",,,,,,,,,,,,,,,,,,,,,,,,,,,,,,,,,,,,,"MET10005/16/20 19:51:01 METAR KRDU 170051Z 15004KT 10SM FEW065 SCT250 26/16 A3003 RMK AO2 SLP163 T02560161","FM-15","7",,,,,,,,,,,,,,,,,,,,,,,,,,,,"2009-07-08"
"72306013722","2020-05-16T20:51:00","FM-15","7",,,,,,,,,,,,,,,,,,,,,,,,,,,,,,,,,,,,,,"30.04","62","74","0.00",,,,"67","30.03","FEW:02 65 SCT:04 250","29.57","10.00","66","120",,"3",,,,,,,,,,,,,,,,,,,,,,,,,,,,,,,,,,,,,"MET10005/16/20 20:51:01 METAR KRDU 170151Z 12003KT 10SM FEW065 SCT250 23/17 A3004 RMK AO2 SLP168 T02330167","FM-15","7",,,,,,,,,,,,,,,,,,,,,,,,,,,,"2009-07-08"
"72306013722","2020-05-16T21:51:00","FM-15","7",,,,,,,,,,,,,,,,,,,,,,,,,,,,,,,,,,,,,,"30.07","61","74","0.00",,"-0.05","3","64","30.05","FEW:02 65 BKN:07 250","29.60","10.00","66","160",,"9",,,,,,,,,,,,,,,,,,,,,,,,,,,,,,,,,,,,,"MET10605/16/20 21:51:01 METAR KRDU 170251Z 16008KT 10SM FEW065 BKN250 23/16 A3007 RMK AO2 SLP177 T02330161 53016","FM-15","7",,,,,,,,,,,,,,,,,,,,,,,,,,,,"2009-07-08"
"72306013722","2020-05-16T22:51:00","FM-15","7",,,,,,,,,,,,,,,,,,,,,,,,,,,,,,,,,,,,,,"30.08","61","73","0.00",,,,"66","30.06","FEW:02 65 SCT:04 250","29.61","10.00","66","160",,"7",,,,,,,,,,,,,,,,,,,,,,,,,,,,,,,,,,,,,"MET10005/16/20 22:51:02 METAR KRDU 170351Z 16006KT 10SM FEW065 SCT250 23/16 A3008 RMK AO2 SLP181 T02280161","FM-15","7",,,,,,,,,,,,,,,,,,,,,,,,,,,,"2009-07-08"
"72306013722","2020-05-16T23:51:00","FM-15","7",,,,,,,,,,,,,,,,,,,,,,,,,,,,,,,,,,,,,,"30.07","61","70","0.00",,,,"73","30.06","FEW:02 250","29.60","10.00","64","170",,"7",,,,,,,,,,,,,,,,,,,,,,,,,,,,,,,,,,,,,"MET10305/16/20 23:51:02 METAR KRDU 170451Z 17006KT 10SM FEW250 21/16 A3007 RMK AO2 SLP178 T02110161 403170156","FM-15","7",,,,,,,,,,,,,,,,,,,,,,,,,,,,"2009-07-08"
"72306013722","2020-05-16T23:59:00","SOD  ","6",,,,,,,,,,,,,,,"61","75","65","30.04","29.59","66","6.9","10","7.0","0","89","60","240","17","0.00","0","0.0","150","13",,,,,,,,,,,,,,,,,,,,,,,,,,,,,,,,,,,,,,,,,,,,,,,,,,,,,,,,,"SOD75624 HR PRECIPITATION (IN): 0.00 SNOW DEPTH (IN):0     24 HR SNOWFALL (IN):0.0  WEATHER(CODE):8  24 HR MAX TEMP (F): 8924 HR MIN TEMP (F): 60AVERAGE STATION PRESSURE:29.585 MINIMUM SEA LEVEL PRESSURE:29.98 TIME OF OCCURRENCE:1726 PEAK WIND SPEED (MPH): 17 PEAK WIND DIR (DEG):240 PEAK WIND TIME (LST):      FASTEST 2MIN SPEED (MPH): 13FASTEST 2MIN DIR (DEG):150 FASTEST 2MIN TIME (LST):     AVERAGE WIND SPEED (MPH): 6.9 24 HR AVG TEMP (F): 75DEPART FROM NORMAL:  7  HEATING DEGREE DAYS:  0 COOLING DEGREE DAYS: 10 LATEST DAY MAX TEMP (0700-1900 LST):89  LATEST NIGHT MIN TEMP(1900-0800 LST):60 HOURLY INCREMENTAL PRECIPITATION VALUES (IN):.00 0.00 0.00 0.00 0.00 0.00 0.00 0.00 0.00 0.00 0.00 0.00 0.00 0.00 0.00 0.00 0.00 0.00 0.00 0.00 0.00 0.00 0.00 0.00","SOD  ","6",,,,,,,,,,,,,,,,,,,,,,,,,"0508","1915",,"2009-07-08"
